{
"type": "FeatureCollection",
"name": "Drinking_fountains_(water_bubblers)",
"crs": { "type": "name", "properties": { "name": "urn:ogc:def:crs:OGC:1.3:CRS84" } },
"features": [
{ "type": "Feature", "properties": { "OBJECTID": 1, "site_name": "5010 Abercrombie Street", "Suburb": "Chippendale", "Location": "Unknown", "Accessible": "Wheelchair accessibility unknown" }, "geometry": { "type": "Point", "coordinates": [ 151.198536910054997, -33.884496369105698 ] } },
{ "type": "Feature", "properties": { "OBJECTID": 2, "site_name": "4010 King Street", "Suburb": "Newtown", "Location": "Park", "Accessible": "Wheelchair accessibility unknown" }, "geometry": { "type": "Point", "coordinates": [ 151.187710639661987, -33.892175276008203 ] } },
{ "type": "Feature", "properties": { "OBJECTID": 3, "site_name": "5020 Ebsworth Street", "Suburb": "Zetland", "Location": "Footway", "Accessible": "Wheelchair accessible" }, "geometry": { "type": "Point", "coordinates": [ 151.204518498869987, -33.906136338327698 ] } },
{ "type": "Feature", "properties": { "OBJECTID": 4, "site_name": "5010 Victoria Street", "Suburb": "Potts Point", "Location": "Footway", "Accessible": "Wheelchair accessible" }, "geometry": { "type": "Point", "coordinates": [ 151.223345469067993, -33.868824297044597 ] } },
{ "type": "Feature", "properties": { "OBJECTID": 5, "site_name": "4040 Kent Street", "Suburb": "Millers Point", "Location": "Footway", "Accessible": "Wheelchair accessible" }, "geometry": { "type": "Point", "coordinates": [ 151.204006470247009, -33.863120292810002 ] } },
{ "type": "Feature", "properties": { "OBJECTID": 6, "site_name": "Glebe Foreshore Walk East", "Suburb": "Glebe", "Location": "Park", "Accessible": "Wheelchair accessibility unknown" }, "geometry": { "type": "Point", "coordinates": [ 151.187652391129006, -33.873433886517503 ] } },
{ "type": "Feature", "properties": { "OBJECTID": 7, "site_name": "Pottinger Park (West) The Paddock", "Suburb": "Dawes Point", "Location": "Park", "Accessible": "Wheelchair accessible" }, "geometry": { "type": "Point", "coordinates": [ 151.205536657235996, -33.8571887352457 ] } },
{ "type": "Feature", "properties": { "OBJECTID": 8, "site_name": "Sydney Park", "Suburb": "Alexandria", "Location": "Park", "Accessible": "Wheelchair accessible" }, "geometry": { "type": "Point", "coordinates": [ 151.182020480901997, -33.907526306377598 ] } },
{ "type": "Feature", "properties": { "OBJECTID": 9, "site_name": "Sydney Park", "Suburb": "Alexandria", "Location": "Park", "Accessible": "No wheelchair access" }, "geometry": { "type": "Point", "coordinates": [ 151.182767285983999, -33.908792992644102 ] } },
{ "type": "Feature", "properties": { "OBJECTID": 10, "site_name": "Sydney Park", "Suburb": "Alexandria", "Location": "Park", "Accessible": "No wheelchair access" }, "geometry": { "type": "Point", "coordinates": [ 151.182472451693002, -33.9119976366893 ] } },
{ "type": "Feature", "properties": { "OBJECTID": 11, "site_name": "Sydney Park", "Suburb": "Alexandria", "Location": "Park", "Accessible": "No wheelchair access" }, "geometry": { "type": "Point", "coordinates": [ 151.181641048291993, -33.908801434891402 ] } },
{ "type": "Feature", "properties": { "OBJECTID": 12, "site_name": "Tarakan Reserve", "Suburb": "Rosebery", "Location": "Park", "Accessible": "Wheelchair accessible" }, "geometry": { "type": "Point", "coordinates": [ 151.204548684363999, -33.920252468472697 ] } },
{ "type": "Feature", "properties": { "OBJECTID": 13, "site_name": "Southern Cross Dr Reserve", "Suburb": "Rosebery", "Location": "Reserve", "Accessible": "Wheelchair accessible" }, "geometry": { "type": "Point", "coordinates": [ 151.21131264265, -33.922365491820997 ] } },
{ "type": "Feature", "properties": { "OBJECTID": 14, "site_name": "Reconciliation Park", "Suburb": "Redfern", "Location": "Park", "Accessible": "Wheelchair accessible" }, "geometry": { "type": "Point", "coordinates": [ 151.203348685062991, -33.890115679774503 ] } },
{ "type": "Feature", "properties": { "OBJECTID": 15, "site_name": "Charles Kernan Reserve", "Suburb": "Darlington", "Location": "Park", "Accessible": "Wheelchair accessible" }, "geometry": { "type": "Point", "coordinates": [ 151.194219456988009, -33.891776272850997 ] } },
{ "type": "Feature", "properties": { "OBJECTID": 16, "site_name": "Victoria Park", "Suburb": "Camperdown", "Location": "Park", "Accessible": "Wheelchair accessible" }, "geometry": { "type": "Point", "coordinates": [ 151.191207460012009, -33.887785264357703 ] } },
{ "type": "Feature", "properties": { "OBJECTID": 17, "site_name": "Victoria Park", "Suburb": "Camperdown", "Location": "Park", "Accessible": "Wheelchair accessible" }, "geometry": { "type": "Point", "coordinates": [ 151.19221741259301, -33.887725246994897 ] } },
{ "type": "Feature", "properties": { "OBJECTID": 18, "site_name": "5070 St Johns Road", "Suburb": "Glebe", "Location": "Footway", "Accessible": "Wheelchair accessible" }, "geometry": { "type": "Point", "coordinates": [ 151.188068493602998, -33.880741198975898 ] } },
{ "type": "Feature", "properties": { "OBJECTID": 19, "site_name": "Amy Street Reserve", "Suburb": "Erskineville", "Location": "Park", "Accessible": "Wheelchair accessible" }, "geometry": { "type": "Point", "coordinates": [ 151.182792996596987, -33.903831856138098 ] } },
{ "type": "Feature", "properties": { "OBJECTID": 20, "site_name": "5060 Missenden Road", "Suburb": "Camperdown", "Location": "Footway", "Accessible": "Wheelchair accessible" }, "geometry": { "type": "Point", "coordinates": [ 151.18215748203599, -33.889677241789599 ] } },
{ "type": "Feature", "properties": { "OBJECTID": 21, "site_name": "4040 Glebe Street", "Suburb": "Glebe", "Location": "Park", "Accessible": "Wheelchair accessible" }, "geometry": { "type": "Point", "coordinates": [ 151.192353147282006, -33.882029699217803 ] } },
{ "type": "Feature", "properties": { "OBJECTID": 22, "site_name": "Kirsova 2 Playground", "Suburb": "Erskineville", "Location": "Park", "Accessible": "Wheelchair accessible" }, "geometry": { "type": "Point", "coordinates": [ 151.184629614562994, -33.901306496425697 ] } },
{ "type": "Feature", "properties": { "OBJECTID": 23, "site_name": "Orphan School Creek and Wood Street Land", "Suburb": "Forest Lodge", "Location": "Park", "Accessible": "Wheelchair accessibility unknown" }, "geometry": { "type": "Point", "coordinates": [ 151.178674184533008, -33.882949427880497 ] } },
{ "type": "Feature", "properties": { "OBJECTID": 24, "site_name": "Glebe Street Playground", "Suburb": "Glebe", "Location": "Park", "Accessible": "No wheelchair access" }, "geometry": { "type": "Point", "coordinates": [ 151.190905672278006, -33.880970188944701 ] } },
{ "type": "Feature", "properties": { "OBJECTID": 25, "site_name": "7-19 Amelia Street (Dyuralya Square)", "Suburb": "Waterloo", "Location": "Park", "Accessible": "Wheelchair accessible" }, "geometry": { "type": "Point", "coordinates": [ 151.213462058021008, -33.901363207760198 ] } },
{ "type": "Feature", "properties": { "OBJECTID": 26, "site_name": "7-19 Amelia Street (Dyuralya Square)", "Suburb": "Waterloo", "Location": "Park", "Accessible": "Wheelchair accessible" }, "geometry": { "type": "Point", "coordinates": [ 151.21311794000701, -33.901752455711602 ] } },
{ "type": "Feature", "properties": { "OBJECTID": 27, "site_name": "Quarry St Streetscape", "Suburb": "Ultimo", "Location": "Park", "Accessible": "Wheelchair accessible" }, "geometry": { "type": "Point", "coordinates": [ 151.196969082585014, -33.876756977501103 ] } },
{ "type": "Feature", "properties": { "OBJECTID": 28, "site_name": "Quarry St Streetscape", "Suburb": "Ultimo", "Location": "Park", "Accessible": "Wheelchair accessible" }, "geometry": { "type": "Point", "coordinates": [ 151.196212724992989, -33.877019943976698 ] } },
{ "type": "Feature", "properties": { "OBJECTID": 29, "site_name": "4060 Missenden Road", "Suburb": "Camperdown", "Location": "Footway", "Accessible": "Wheelchair accessible" }, "geometry": { "type": "Point", "coordinates": [ 151.182033479366993, -33.889615265867803 ] } },
{ "type": "Feature", "properties": { "OBJECTID": 30, "site_name": "Sweet Acres", "Suburb": "Rosebery", "Location": "Park", "Accessible": "No wheelchair access" }, "geometry": { "type": "Point", "coordinates": [ 151.204991992820993, -33.9129070793376 ] } },
{ "type": "Feature", "properties": { "OBJECTID": 31, "site_name": "St Neot Reserve", "Suburb": "Potts Point", "Location": "Park", "Accessible": "No wheelchair access" }, "geometry": { "type": "Point", "coordinates": [ 151.225226467068012, -33.867349277696697 ] } },
{ "type": "Feature", "properties": { "OBJECTID": 32, "site_name": "Rest Area - Bridge Street", "Suburb": "Erskineville", "Location": "Park", "Accessible": "Wheelchair accessible" }, "geometry": { "type": "Point", "coordinates": [ 151.185827651705011, -33.900186071949001 ] } },
{ "type": "Feature", "properties": { "OBJECTID": 33, "site_name": "5040 O'Connor Street ", "Suburb": "Chippendale", "Location": "Park", "Accessible": "Wheelchair accessible" }, "geometry": { "type": "Point", "coordinates": [ 151.201671135887011, -33.8861423928562 ] } },
{ "type": "Feature", "properties": { "OBJECTID": 34, "site_name": "Redfern Park", "Suburb": "Redfern", "Location": "Park", "Accessible": "Wheelchair accessible" }, "geometry": { "type": "Point", "coordinates": [ 151.205214769461008, -33.895429601795797 ] } },
{ "type": "Feature", "properties": { "OBJECTID": 35, "site_name": "Street Closure - Telopea Street", "Suburb": "Redfern", "Location": "Reserve", "Accessible": "Wheelchair accessible" }, "geometry": { "type": "Point", "coordinates": [ 151.213623959919005, -33.894612786009603 ] } },
{ "type": "Feature", "properties": { "OBJECTID": 36, "site_name": "Garraway Park", "Suburb": "Rosebery", "Location": "Park", "Accessible": "Wheelchair accessibility unknown" }, "geometry": { "type": "Point", "coordinates": [ 151.210704234453004, -33.912855770898801 ] } },
{ "type": "Feature", "properties": { "OBJECTID": 37, "site_name": "Redfern Community Centre", "Suburb": "Redfern", "Location": "Park", "Accessible": "Wheelchair accessibility unknown" }, "geometry": { "type": "Point", "coordinates": [ 151.19810297203901, -33.890786140560998 ] } },
{ "type": "Feature", "properties": { "OBJECTID": 38, "site_name": "Sydney Park", "Suburb": "Alexandria", "Location": "Park", "Accessible": "No wheelchair access" }, "geometry": { "type": "Point", "coordinates": [ 151.185882403659008, -33.908207892406502 ] } },
{ "type": "Feature", "properties": { "OBJECTID": 39, "site_name": "5020 Holt Street", "Suburb": "Surry Hills", "Location": "Footway", "Accessible": "Wheelchair accessible" }, "geometry": { "type": "Point", "coordinates": [ 151.208975248814994, -33.886673081479699 ] } },
{ "type": "Feature", "properties": { "OBJECTID": 40, "site_name": "4070 Waterloo Street", "Suburb": "Surry Hills", "Location": "Footway", "Accessible": "Wheelchair accessible" }, "geometry": { "type": "Point", "coordinates": [ 151.210049971524001, -33.887191424034803 ] } },
{ "type": "Feature", "properties": { "OBJECTID": 41, "site_name": "Ross St Playground", "Suburb": "Forest Lodge", "Location": "Park", "Accessible": "Wheelchair accessibility unknown" }, "geometry": { "type": "Point", "coordinates": [ 151.18150792371199, -33.8814727704139 ] } },
{ "type": "Feature", "properties": { "OBJECTID": 42, "site_name": "Cardigan St Park", "Suburb": "Glebe", "Location": "Park", "Accessible": "Wheelchair accessibility unknown" }, "geometry": { "type": "Point", "coordinates": [ 151.189750032808007, -33.8773310205153 ] } },
{ "type": "Feature", "properties": { "OBJECTID": 43, "site_name": "Bicentennial Park 2", "Suburb": "Annandale", "Location": "Park", "Accessible": "Wheelchair accessibility unknown" }, "geometry": { "type": "Point", "coordinates": [ 151.176017486908989, -33.873680765083598 ] } },
{ "type": "Feature", "properties": { "OBJECTID": 44, "site_name": "Shannon Reserve", "Suburb": "Surry Hills", "Location": "Park", "Accessible": "Wheelchair accessibility unknown" }, "geometry": { "type": "Point", "coordinates": [ 151.214066422787994, -33.885744717340401 ] } },
{ "type": "Feature", "properties": { "OBJECTID": 45, "site_name": "Mitchell Road Reserve", "Suburb": "Alexandria", "Location": "Park", "Accessible": "Wheelchair accessibility unknown" }, "geometry": { "type": "Point", "coordinates": [ 151.194499939188006, -33.899604032970601 ] } },
{ "type": "Feature", "properties": { "OBJECTID": 46, "site_name": "Sarah Peninton Reserve", "Suburb": "Glebe", "Location": "Park", "Accessible": "Wheelchair accessibility unknown" }, "geometry": { "type": "Point", "coordinates": [ 151.187198183729009, -33.877372398008198 ] } },
{ "type": "Feature", "properties": { "OBJECTID": 47, "site_name": "Gunyama Park - 17 Zetland Avenue", "Suburb": "Zetland", "Location": "Park", "Accessible": "Wheelchair accessibility unknown" }, "geometry": { "type": "Point", "coordinates": [ 151.208141052407001, -33.908655266133202 ] } },
{ "type": "Feature", "properties": { "OBJECTID": 48, "site_name": "Gunyama Park - 17 Zetland Avenue", "Suburb": "Zetland", "Location": "Park", "Accessible": "Wheelchair accessibility unknown" }, "geometry": { "type": "Point", "coordinates": [ 151.207919539903003, -33.909606802226897 ] } },
{ "type": "Feature", "properties": { "OBJECTID": 49, "site_name": "Gunyama Park - 17 Zetland Avenue", "Suburb": "Zetland", "Location": "Park", "Accessible": "Wheelchair accessibility unknown" }, "geometry": { "type": "Point", "coordinates": [ 151.208790677622005, -33.9098818829195 ] } },
{ "type": "Feature", "properties": { "OBJECTID": 50, "site_name": "Gunyama Park - 17 Zetland Avenue", "Suburb": "Zetland", "Location": "Park", "Accessible": "Wheelchair accessibility unknown" }, "geometry": { "type": "Point", "coordinates": [ 151.208960526921004, -33.909770914931499 ] } },
{ "type": "Feature", "properties": { "OBJECTID": 51, "site_name": "Gunyama Park - 17 Zetland Avenue", "Suburb": "Zetland", "Location": "Park", "Accessible": "Wheelchair accessibility unknown" }, "geometry": { "type": "Point", "coordinates": [ 151.208603165727993, -33.908826466680999 ] } },
{ "type": "Feature", "properties": { "OBJECTID": 52, "site_name": "James Hilder Reserve", "Suburb": "Surry Hills", "Location": "Park", "Accessible": "Wheelchair accessibility unknown" }, "geometry": { "type": "Point", "coordinates": [ 151.212538667996995, -33.880623748680399 ] } },
{ "type": "Feature", "properties": { "OBJECTID": 53, "site_name": "5050 Macquarie Street", "Suburb": "Sydney", "Location": "Footway", "Accessible": "Wheelchair accessibility unknown" }, "geometry": { "type": "Point", "coordinates": [ 151.212059814936993, -33.868030092357799 ] } },
{ "type": "Feature", "properties": { "OBJECTID": 54, "site_name": "5140 George Street", "Suburb": "Sydney", "Location": "Footway", "Accessible": "Wheelchair accessible" }, "geometry": { "type": "Point", "coordinates": [ 151.206642531750987, -33.874685932833003 ] } },
{ "type": "Feature", "properties": { "OBJECTID": 55, "site_name": "5140 George Street", "Suburb": "Sydney", "Location": "Footway", "Accessible": "Wheelchair accessible" }, "geometry": { "type": "Point", "coordinates": [ 151.206813220235006, -33.874779583479501 ] } },
{ "type": "Feature", "properties": { "OBJECTID": 56, "site_name": "5150 George Street", "Suburb": "Sydney", "Location": "Footway", "Accessible": "Wheelchair accessible" }, "geometry": { "type": "Point", "coordinates": [ 151.20591612346999, -33.876794809831601 ] } },
{ "type": "Feature", "properties": { "OBJECTID": 57, "site_name": "5150 George Street", "Suburb": "Sydney", "Location": "Footway", "Accessible": "Wheelchair accessible" }, "geometry": { "type": "Point", "coordinates": [ 151.206101150100011, -33.876911213839399 ] } },
{ "type": "Feature", "properties": { "OBJECTID": 58, "site_name": "5160 George Street", "Suburb": "Haymarket", "Location": "Footway", "Accessible": "Wheelchair accessible" }, "geometry": { "type": "Point", "coordinates": [ 151.205425384529008, -33.878830376427302 ] } },
{ "type": "Feature", "properties": { "OBJECTID": 59, "site_name": "4200 George Street", "Suburb": "Haymarket", "Location": "Footway", "Accessible": "Wheelchair accessibility unknown" }, "geometry": { "type": "Point", "coordinates": [ 151.204960166728995, -33.8802966823297 ] } },
{ "type": "Feature", "properties": { "OBJECTID": 60, "site_name": "4200 George Street", "Suburb": "Haymarket", "Location": "Footway", "Accessible": "Wheelchair accessible" }, "geometry": { "type": "Point", "coordinates": [ 151.205086666372011, -33.880539019818201 ] } },
{ "type": "Feature", "properties": { "OBJECTID": 61, "site_name": "4180 George Street", "Suburb": "Haymarket", "Location": "Footway", "Accessible": "Wheelchair accessibility unknown" }, "geometry": { "type": "Point", "coordinates": [ 151.205606075935009, -33.878942299526798 ] } },
{ "type": "Feature", "properties": { "OBJECTID": 62, "site_name": "5020 Mitchell Road", "Suburb": "Alexandria", "Location": "Reserve", "Accessible": "Wheelchair accessible" }, "geometry": { "type": "Point", "coordinates": [ 151.194481569816986, -33.899582843384401 ] } },
{ "type": "Feature", "properties": { "OBJECTID": 63, "site_name": "5040 Maddox Street", "Suburb": "Alexandria", "Location": "Park", "Accessible": "Wheelchair accessibility unknown" }, "geometry": { "type": "Point", "coordinates": [ 151.193861640737993, -33.907614799827002 ] } },
{ "type": "Feature", "properties": { "OBJECTID": 64, "site_name": "5060 Bridge Street", "Suburb": "Sydney", "Location": "Footway", "Accessible": "Wheelchair accessible" }, "geometry": { "type": "Point", "coordinates": [ 151.21214649947899, -33.863395935120998 ] } },
{ "type": "Feature", "properties": { "OBJECTID": 65, "site_name": "4090 George Street", "Suburb": "Sydney", "Location": "Footway", "Accessible": "Wheelchair accessible" }, "geometry": { "type": "Point", "coordinates": [ 151.207206858728, -33.865706569016702 ] } },
{ "type": "Feature", "properties": { "OBJECTID": 66, "site_name": "4060 George Street", "Suburb": "Sydney", "Location": "Footway", "Accessible": "Wheelchair accessible" }, "geometry": { "type": "Point", "coordinates": [ 151.207567210190007, -33.8623989868953 ] } },
{ "type": "Feature", "properties": { "OBJECTID": 67, "site_name": "5020 Alfred Street", "Suburb": "Sydney", "Location": "Footway", "Accessible": "Wheelchair accessible" }, "geometry": { "type": "Point", "coordinates": [ 151.210327340324994, -33.861673886627301 ] } },
{ "type": "Feature", "properties": { "OBJECTID": 68, "site_name": "4110 George Street", "Suburb": "Sydney", "Location": "Footway", "Accessible": "Wheelchair accessible" }, "geometry": { "type": "Point", "coordinates": [ 151.207119806581005, -33.867812224717703 ] } },
{ "type": "Feature", "properties": { "OBJECTID": 69, "site_name": "5110 George Street", "Suburb": "Sydney", "Location": "Footway", "Accessible": "Wheelchair accessible" }, "geometry": { "type": "Point", "coordinates": [ 151.207013768819991, -33.8695900002824 ] } },
{ "type": "Feature", "properties": { "OBJECTID": 70, "site_name": "Sheas Creek Shared Path", "Suburb": "Alexandria", "Location": "Park", "Accessible": "Wheelchair accessibility unknown" }, "geometry": { "type": "Point", "coordinates": [ 151.193912529931993, -33.907699137065698 ] } },
{ "type": "Feature", "properties": { "OBJECTID": 71, "site_name": "103 Portman Street", "Suburb": "Zetland", "Location": "Park", "Accessible": "Wheelchair accessibility unknown" }, "geometry": { "type": "Point", "coordinates": [ 151.205503828687995, -33.908009181529799 ] } },
{ "type": "Feature", "properties": { "OBJECTID": 72, "site_name": "5040 King Street", "Suburb": "Sydney", "Location": "Footway", "Accessible": "Wheelchair accessible" }, "geometry": { "type": "Point", "coordinates": [ 151.205399150843988, -33.868661413958698 ] } },
{ "type": "Feature", "properties": { "OBJECTID": 73, "site_name": "4020 Harbour Street", "Suburb": "Haymarket", "Location": "Footway", "Accessible": "Wheelchair accessible" }, "geometry": { "type": "Point", "coordinates": [ 151.203473867941, -33.8792056415788 ] } },
{ "type": "Feature", "properties": { "OBJECTID": 74, "site_name": "The Western Block", "Suburb": "Camperdown", "Location": "Park", "Accessible": "Wheelchair accessibility unknown" }, "geometry": { "type": "Point", "coordinates": [ 151.178818245273987, -33.885607528865897 ] } },
{ "type": "Feature", "properties": { "OBJECTID": 75, "site_name": "5020 Macquarie Street", "Suburb": "Sydney", "Location": "Footway", "Accessible": "No wheelchair access" }, "geometry": { "type": "Point", "coordinates": [ 151.212973073640001, -33.862089575141603 ] } },
{ "type": "Feature", "properties": { "OBJECTID": 76, "site_name": "Circular Quay", "Suburb": "Sydney", "Location": "Property", "Accessible": "Wheelchair accessible" }, "geometry": { "type": "Point", "coordinates": [ 151.21236418300299, -33.861224085700101 ] } },
{ "type": "Feature", "properties": { "OBJECTID": 77, "site_name": "5050 MacArthur Street", "Suburb": "Ultimo", "Location": "Footway", "Accessible": "No wheelchair access" }, "geometry": { "type": "Point", "coordinates": [ 151.19867958428901, -33.879591821392196 ] } },
{ "type": "Feature", "properties": { "OBJECTID": 78, "site_name": "Observatory Hill Park", "Suburb": "Millers Point", "Location": "Park", "Accessible": "No wheelchair access" }, "geometry": { "type": "Point", "coordinates": [ 151.205416239844993, -33.859828910362502 ] } },
{ "type": "Feature", "properties": { "OBJECTID": 79, "site_name": "5090 Harris Street", "Suburb": "Ultimo", "Location": "Footway", "Accessible": "No wheelchair access" }, "geometry": { "type": "Point", "coordinates": [ 151.198254981393006, -33.877331082292798 ] } },
{ "type": "Feature", "properties": { "OBJECTID": 80, "site_name": "Giba Park", "Suburb": "Pyrmont", "Location": "Park", "Accessible": "No wheelchair access" }, "geometry": { "type": "Point", "coordinates": [ 151.192232717096999, -33.864021280265597 ] } },
{ "type": "Feature", "properties": { "OBJECTID": 81, "site_name": "Beare Park", "Suburb": "Elizabeth Bay", "Location": "Park", "Accessible": "No wheelchair access" }, "geometry": { "type": "Point", "coordinates": [ 151.22897383236301, -33.870430813483097 ] } },
{ "type": "Feature", "properties": { "OBJECTID": 82, "site_name": "Fitzroy Gardens", "Suburb": "Elizabeth Bay", "Location": "Park", "Accessible": "No wheelchair access" }, "geometry": { "type": "Point", "coordinates": [ 151.225441052385008, -33.872701886006602 ] } },
{ "type": "Feature", "properties": { "OBJECTID": 83, "site_name": "Rushcutters Bay Park", "Suburb": "Rushcutters Bay", "Location": "Park", "Accessible": "No wheelchair access" }, "geometry": { "type": "Point", "coordinates": [ 151.229584473974001, -33.873599128785202 ] } },
{ "type": "Feature", "properties": { "OBJECTID": 84, "site_name": "Green Park", "Suburb": "Darlinghurst", "Location": "Park", "Accessible": "No wheelchair access" }, "geometry": { "type": "Point", "coordinates": [ 151.220823870814002, -33.8793631191241 ] } },
{ "type": "Feature", "properties": { "OBJECTID": 85, "site_name": "Alexandria Park", "Suburb": "Alexandria", "Location": "Park", "Accessible": "No wheelchair access" }, "geometry": { "type": "Point", "coordinates": [ 151.196698057996002, -33.899799994303201 ] } },
{ "type": "Feature", "properties": { "OBJECTID": 86, "site_name": "Beaconsfield Park", "Suburb": "Beaconsfield", "Location": "Park", "Accessible": "No wheelchair access" }, "geometry": { "type": "Point", "coordinates": [ 151.199698715318988, -33.910805313479798 ] } },
{ "type": "Feature", "properties": { "OBJECTID": 87, "site_name": "Janet Beirne Reserve", "Suburb": "Beaconsfield", "Location": "Park", "Accessible": "No wheelchair access" }, "geometry": { "type": "Point", "coordinates": [ 151.200277438813998, -33.914107723397997 ] } },
{ "type": "Feature", "properties": { "OBJECTID": 88, "site_name": "Crete Reserve", "Suburb": "Rosebery", "Location": "Park", "Accessible": "No wheelchair access" }, "geometry": { "type": "Point", "coordinates": [ 151.205892424700011, -33.919937513155098 ] } },
{ "type": "Feature", "properties": { "OBJECTID": 89, "site_name": "5030 Macquarie Street", "Suburb": "Sydney", "Location": "Footway", "Accessible": "No wheelchair access" }, "geometry": { "type": "Point", "coordinates": [ 151.212578154174992, -33.864872040765398 ] } },
{ "type": "Feature", "properties": { "OBJECTID": 90, "site_name": "Hyde Park North", "Suburb": "Sydney", "Location": "Park", "Accessible": "No wheelchair access" }, "geometry": { "type": "Point", "coordinates": [ 151.211462393585009, -33.871292495573996 ] } },
{ "type": "Feature", "properties": { "OBJECTID": 91, "site_name": "4010 College Street", "Suburb": "Sydney", "Location": "Footway", "Accessible": "No wheelchair access" }, "geometry": { "type": "Point", "coordinates": [ 151.213577913933989, -33.870444709556097 ] } },
{ "type": "Feature", "properties": { "OBJECTID": 92, "site_name": "Hyde Park South", "Suburb": "Sydney", "Location": "Park", "Accessible": "No wheelchair access" }, "geometry": { "type": "Point", "coordinates": [ 151.212178448395008, -33.8749114836925 ] } },
{ "type": "Feature", "properties": { "OBJECTID": 93, "site_name": "Circular Quay", "Suburb": "Sydney", "Location": "Property", "Accessible": "No wheelchair access" }, "geometry": { "type": "Point", "coordinates": [ 151.209711523723996, -33.859562343861803 ] } },
{ "type": "Feature", "properties": { "OBJECTID": 94, "site_name": "Moore Park", "Suburb": "Moore Park", "Location": "Park", "Accessible": "No wheelchair access" }, "geometry": { "type": "Point", "coordinates": [ 151.222430768730987, -33.901628971110597 ] } },
{ "type": "Feature", "properties": { "OBJECTID": 95, "site_name": "Harry Noble Reserve", "Suburb": "Erskineville", "Location": "Park", "Accessible": "No wheelchair access" }, "geometry": { "type": "Point", "coordinates": [ 151.190193337647997, -33.900953839831097 ] } },
{ "type": "Feature", "properties": { "OBJECTID": 96, "site_name": "Solander Park", "Suburb": "Erskineville", "Location": "Park", "Accessible": "No wheelchair access" }, "geometry": { "type": "Point", "coordinates": [ 151.189581904751009, -33.899655010794199 ] } },
{ "type": "Feature", "properties": { "OBJECTID": 97, "site_name": "5040 Druitt Street", "Suburb": "Sydney", "Location": "Property", "Accessible": "No wheelchair access" }, "geometry": { "type": "Point", "coordinates": [ 151.206207507414007, -33.872893339133903 ] } },
{ "type": "Feature", "properties": { "OBJECTID": 98, "site_name": "Waterloo Park and Oval", "Suburb": "Waterloo", "Location": "Park", "Accessible": "No wheelchair access" }, "geometry": { "type": "Point", "coordinates": [ 151.204744487927002, -33.901021731118099 ] } },
{ "type": "Feature", "properties": { "OBJECTID": 99, "site_name": "Waterloo Park and Oval", "Suburb": "Waterloo", "Location": "Park", "Accessible": "No wheelchair access" }, "geometry": { "type": "Point", "coordinates": [ 151.204785142514993, -33.900697066865398 ] } },
{ "type": "Feature", "properties": { "OBJECTID": 100, "site_name": "Sydney Park", "Suburb": "Alexandria", "Location": "Park", "Accessible": "No wheelchair access" }, "geometry": { "type": "Point", "coordinates": [ 151.188148135597999, -33.909388166310599 ] } },
{ "type": "Feature", "properties": { "OBJECTID": 101, "site_name": "Sydney Park", "Suburb": "Alexandria", "Location": "Park", "Accessible": "No wheelchair access" }, "geometry": { "type": "Point", "coordinates": [ 151.185118256364007, -33.907895002558398 ] } },
{ "type": "Feature", "properties": { "OBJECTID": 102, "site_name": "Sydney Park", "Suburb": "Alexandria", "Location": "Park", "Accessible": "No wheelchair access" }, "geometry": { "type": "Point", "coordinates": [ 151.184887100845003, -33.907560298635701 ] } },
{ "type": "Feature", "properties": { "OBJECTID": 103, "site_name": "Erskineville Park and Oval", "Suburb": "Erskineville", "Location": "Park", "Accessible": "No wheelchair access" }, "geometry": { "type": "Point", "coordinates": [ 151.191997154809002, -33.901914984003 ] } },
{ "type": "Feature", "properties": { "OBJECTID": 104, "site_name": "Lillian Fowler Reserve", "Suburb": "Newtown", "Location": "Park", "Accessible": "No wheelchair access" }, "geometry": { "type": "Point", "coordinates": [ 151.180163797840009, -33.900046599303998 ] } },
{ "type": "Feature", "properties": { "OBJECTID": 105, "site_name": "Mrs Isabella Hills Rest Area", "Suburb": "Newtown", "Location": "Park", "Accessible": "No wheelchair access" }, "geometry": { "type": "Point", "coordinates": [ 151.18146180614599, -33.901089691793501 ] } },
{ "type": "Feature", "properties": { "OBJECTID": 106, "site_name": "Mary O'Brien Reserve", "Suburb": "Zetland", "Location": "Park", "Accessible": "No wheelchair access" }, "geometry": { "type": "Point", "coordinates": [ 151.208027979359997, -33.905945431730899 ] } },
{ "type": "Feature", "properties": { "OBJECTID": 107, "site_name": "Baptist St Reserve", "Suburb": "Redfern", "Location": "Reserve", "Accessible": "No wheelchair access" }, "geometry": { "type": "Point", "coordinates": [ 151.211955818800988, -33.896709382145801 ] } },
{ "type": "Feature", "properties": { "OBJECTID": 108, "site_name": "Munn Reserve", "Suburb": "Barangaroo", "Location": "Park", "Accessible": "No wheelchair access" }, "geometry": { "type": "Point", "coordinates": [ 151.201761653376991, -33.858065837303698 ] } },
{ "type": "Feature", "properties": { "OBJECTID": 109, "site_name": "5040 Bathurst Street", "Suburb": "Sydney", "Location": "Property", "Accessible": "No wheelchair access" }, "geometry": { "type": "Point", "coordinates": [ 151.207474564584999, -33.874591095105401 ] } },
{ "type": "Feature", "properties": { "OBJECTID": 110, "site_name": "Tumbalong Park", "Suburb": "Sydney", "Location": "Park", "Accessible": "No wheelchair access" }, "geometry": { "type": "Point", "coordinates": [ 151.201354239215988, -33.874485030027699 ] } },
{ "type": "Feature", "properties": { "OBJECTID": 111, "site_name": "5090 King Street", "Suburb": "Sydney", "Location": "Footway", "Accessible": "No wheelchair access" }, "geometry": { "type": "Point", "coordinates": [ 151.210631708259996, -33.869128513984101 ] } },
{ "type": "Feature", "properties": { "OBJECTID": 112, "site_name": "5060 Liverpool Street", "Suburb": "Sydney", "Location": "Footway", "Accessible": "No wheelchair access" }, "geometry": { "type": "Point", "coordinates": [ 151.209248349976008, -33.876906053434702 ] } },
{ "type": "Feature", "properties": { "OBJECTID": 113, "site_name": "5020 Macquarie Street", "Suburb": "Sydney", "Location": "Footway", "Accessible": "No wheelchair access" }, "geometry": { "type": "Point", "coordinates": [ 151.213059171683, -33.862740440594699 ] } },
{ "type": "Feature", "properties": { "OBJECTID": 114, "site_name": "5020 Macquarie Street", "Suburb": "Sydney", "Location": "Footway", "Accessible": "No wheelchair access" }, "geometry": { "type": "Point", "coordinates": [ 151.212842250190988, -33.863009170547798 ] } },
{ "type": "Feature", "properties": { "OBJECTID": 115, "site_name": "5030 Macquarie Street", "Suburb": "Sydney", "Location": "Footway", "Accessible": "No wheelchair access" }, "geometry": { "type": "Point", "coordinates": [ 151.212504855466989, -33.8653651332368 ] } },
{ "type": "Feature", "properties": { "OBJECTID": 116, "site_name": "5040 Macquarie Street", "Suburb": "Sydney", "Location": "Footway", "Accessible": "No wheelchair access" }, "geometry": { "type": "Point", "coordinates": [ 151.212355069609004, -33.8663278262934 ] } },
{ "type": "Feature", "properties": { "OBJECTID": 117, "site_name": "5040 Macquarie Street", "Suburb": "Sydney", "Location": "Property", "Accessible": "No wheelchair access" }, "geometry": { "type": "Point", "coordinates": [ 151.212613108737997, -33.8663946918943 ] } },
{ "type": "Feature", "properties": { "OBJECTID": 118, "site_name": "5050 Macquarie Street", "Suburb": "Sydney", "Location": "Footway", "Accessible": "No wheelchair access" }, "geometry": { "type": "Point", "coordinates": [ 151.212251137658996, -33.867164940167697 ] } },
{ "type": "Feature", "properties": { "OBJECTID": 119, "site_name": "5040 Bridge Road", "Suburb": "Glebe", "Location": "Footway", "Accessible": "No wheelchair access" }, "geometry": { "type": "Point", "coordinates": [ 151.185517748123999, -33.880480564259699 ] } },
{ "type": "Feature", "properties": { "OBJECTID": 120, "site_name": "5040 Wentworth Park Road", "Suburb": "Glebe", "Location": "Footway", "Accessible": "No wheelchair access" }, "geometry": { "type": "Point", "coordinates": [ 151.192689681758992, -33.8787554654457 ] } },
{ "type": "Feature", "properties": { "OBJECTID": 121, "site_name": "Lyons Rd Reserve", "Suburb": "Camperdown", "Location": "Park", "Accessible": "No wheelchair access" }, "geometry": { "type": "Point", "coordinates": [ 151.178998209583995, -33.886027332164801 ] } },
{ "type": "Feature", "properties": { "OBJECTID": 122, "site_name": "Seamer St Reserve", "Suburb": "Forest Lodge", "Location": "Park", "Accessible": "No wheelchair access" }, "geometry": { "type": "Point", "coordinates": [ 151.186844670450995, -33.884142488504899 ] } },
{ "type": "Feature", "properties": { "OBJECTID": 123, "site_name": "Hyde Park South", "Suburb": "Sydney", "Location": "Park", "Accessible": "No wheelchair access" }, "geometry": { "type": "Point", "coordinates": [ 151.210176584456008, -33.874659235490803 ] } },
{ "type": "Feature", "properties": { "OBJECTID": 124, "site_name": "Oxford Square", "Suburb": "Darlinghurst", "Location": "Footway", "Accessible": "No wheelchair access" }, "geometry": { "type": "Point", "coordinates": [ 151.214476599194995, -33.878238338770203 ] } },
{ "type": "Feature", "properties": { "OBJECTID": 125, "site_name": "Pirrama Park", "Suburb": "Pyrmont", "Location": "Park", "Accessible": "No wheelchair access" }, "geometry": { "type": "Point", "coordinates": [ 151.193485764609989, -33.863152976341702 ] } },
{ "type": "Feature", "properties": { "OBJECTID": 126, "site_name": "Jack Haynes Rest Area", "Suburb": "Newtown", "Location": "Park", "Accessible": "No wheelchair access" }, "geometry": { "type": "Point", "coordinates": [ 151.184850602065012, -33.895033681161699 ] } },
{ "type": "Feature", "properties": { "OBJECTID": 127, "site_name": "Devine Street Reserve", "Suburb": "Erskineville", "Location": "Park", "Accessible": "No wheelchair access" }, "geometry": { "type": "Point", "coordinates": [ 151.183101899135011, -33.905440146920398 ] } },
{ "type": "Feature", "properties": { "OBJECTID": 128, "site_name": "McKee Street Reserve", "Suburb": "Ultimo", "Location": "Park", "Accessible": "No wheelchair access" }, "geometry": { "type": "Point", "coordinates": [ 151.197598183433001, -33.881156843179603 ] } },
{ "type": "Feature", "properties": { "OBJECTID": 129, "site_name": "5010 Minogue Crescent", "Suburb": "Forest Lodge", "Location": "Reserve", "Accessible": "No wheelchair access" }, "geometry": { "type": "Point", "coordinates": [ 151.175537011736992, -33.881072571075997 ] } },
{ "type": "Feature", "properties": { "OBJECTID": 130, "site_name": "St James Park", "Suburb": "Glebe", "Location": "Park", "Accessible": "Wheelchair accessible" }, "geometry": { "type": "Point", "coordinates": [ 151.184717202631987, -33.879958026209103 ] } },
{ "type": "Feature", "properties": { "OBJECTID": 131, "site_name": "Lewis Hoad Reserve", "Suburb": "Forest Lodge", "Location": "Park", "Accessible": "No wheelchair access" }, "geometry": { "type": "Point", "coordinates": [ 151.179156837987989, -33.880333324025003 ] } },
{ "type": "Feature", "properties": { "OBJECTID": 132, "site_name": "Moore Park", "Suburb": "Moore Park", "Location": "Park", "Accessible": "No wheelchair access" }, "geometry": { "type": "Point", "coordinates": [ 151.217093694879992, -33.891980562584301 ] } },
{ "type": "Feature", "properties": { "OBJECTID": 133, "site_name": "5040 Hickson Road", "Suburb": "The Rocks", "Location": "Footway", "Accessible": "No wheelchair access" }, "geometry": { "type": "Point", "coordinates": [ 151.21017595910601, -33.854994900143097 ] } },
{ "type": "Feature", "properties": { "OBJECTID": 134, "site_name": "Hansom Cab Place", "Suburb": "Redfern", "Location": "Park", "Accessible": "Wheelchair accessible" }, "geometry": { "type": "Point", "coordinates": [ 151.210753493694995, -33.893731508862302 ] } },
{ "type": "Feature", "properties": { "OBJECTID": 135, "site_name": "3020 Hay Street", "Suburb": "Haymarket", "Location": "Footway", "Accessible": "No wheelchair access" }, "geometry": { "type": "Point", "coordinates": [ 151.208253985456992, -33.880229481971597 ] } },
{ "type": "Feature", "properties": { "OBJECTID": 136, "site_name": "5010 Eddy Avenue", "Suburb": "Haymarket", "Location": "Footway", "Accessible": "No wheelchair access" }, "geometry": { "type": "Point", "coordinates": [ 151.206659779776004, -33.882278034066204 ] } },
{ "type": "Feature", "properties": { "OBJECTID": 137, "site_name": "5030 Quay Street", "Suburb": "Haymarket", "Location": "Footway", "Accessible": "No wheelchair access" }, "geometry": { "type": "Point", "coordinates": [ 151.203744263547009, -33.882155750996198 ] } },
{ "type": "Feature", "properties": { "OBJECTID": 138, "site_name": "Argyle Place Park", "Suburb": "Millers Point", "Location": "Park", "Accessible": "No wheelchair access" }, "geometry": { "type": "Point", "coordinates": [ 151.205177836980994, -33.858396264722401 ] } },
{ "type": "Feature", "properties": { "OBJECTID": 139, "site_name": "Observatory Hill Park", "Suburb": "Millers Point", "Location": "Park", "Accessible": "No wheelchair access" }, "geometry": { "type": "Point", "coordinates": [ 151.204324381514994, -33.860244488278397 ] } },
{ "type": "Feature", "properties": { "OBJECTID": 140, "site_name": "Royal Botanic Gardens", "Suburb": "Sydney", "Location": "Footway", "Accessible": "No wheelchair access" }, "geometry": { "type": "Point", "coordinates": [ 151.212785447554012, -33.864920315253798 ] } },
{ "type": "Feature", "properties": { "OBJECTID": 141, "site_name": "5030 Glebe Point Road", "Suburb": "Glebe", "Location": "Footway", "Accessible": "No wheelchair access" }, "geometry": { "type": "Point", "coordinates": [ 151.182277459548999, -33.873705836651801 ] } },
{ "type": "Feature", "properties": { "OBJECTID": 142, "site_name": "5060 Cowper Wharf Roadway", "Suburb": "Potts Point", "Location": "Property", "Accessible": "No wheelchair access" }, "geometry": { "type": "Point", "coordinates": [ 151.223855281952012, -33.8660894379178 ] } },
{ "type": "Feature", "properties": { "OBJECTID": 143, "site_name": "Kimberly Grove Reserve", "Suburb": "Rosebery", "Location": "Park", "Accessible": "No wheelchair access" }, "geometry": { "type": "Point", "coordinates": [ 151.210264237990003, -33.916404745663598 ] } },
{ "type": "Feature", "properties": { "OBJECTID": 144, "site_name": "Joynton Park", "Suburb": "Zetland", "Location": "Park", "Accessible": "No wheelchair access" }, "geometry": { "type": "Point", "coordinates": [ 151.211082951691992, -33.906316459193498 ] } },
{ "type": "Feature", "properties": { "OBJECTID": 145, "site_name": "Joynton Park", "Suburb": "Zetland", "Location": "Park", "Accessible": "No wheelchair access" }, "geometry": { "type": "Point", "coordinates": [ 151.211078366409993, -33.906323696663598 ] } },
{ "type": "Feature", "properties": { "OBJECTID": 146, "site_name": "Tote Park", "Suburb": "Zetland", "Location": "Park", "Accessible": "No wheelchair access" }, "geometry": { "type": "Point", "coordinates": [ 151.209801600600997, -33.904424386568799 ] } },
{ "type": "Feature", "properties": { "OBJECTID": 147, "site_name": "Tote Park", "Suburb": "Zetland", "Location": "Park", "Accessible": "No wheelchair access" }, "geometry": { "type": "Point", "coordinates": [ 151.209788425305987, -33.904418333736402 ] } },
{ "type": "Feature", "properties": { "OBJECTID": 148, "site_name": "5050 City Road", "Suburb": "Camperdown", "Location": "Footway", "Accessible": "No wheelchair access" }, "geometry": { "type": "Point", "coordinates": [ 151.189009183483989, -33.890895695594097 ] } },
{ "type": "Feature", "properties": { "OBJECTID": 149, "site_name": "Jubilee Fountain Plaza", "Suburb": "Camperdown", "Location": "Footway", "Accessible": "No wheelchair access" }, "geometry": { "type": "Point", "coordinates": [ 151.192755596524989, -33.884406363736197 ] } },
{ "type": "Feature", "properties": { "OBJECTID": 150, "site_name": "Bowden Playground", "Suburb": "Alexandria", "Location": "Park", "Accessible": "No wheelchair access" }, "geometry": { "type": "Point", "coordinates": [ 151.192611686643005, -33.903581755061801 ] } },
{ "type": "Feature", "properties": { "OBJECTID": 151, "site_name": "5040 Renwick Street", "Suburb": "Alexandria", "Location": "Park", "Accessible": "No wheelchair access" }, "geometry": { "type": "Point", "coordinates": [ 151.194376294281994, -33.899088050212299 ] } },
{ "type": "Feature", "properties": { "OBJECTID": 152, "site_name": "Gowrie Street Reserve", "Suburb": "Newtown", "Location": "Park", "Accessible": "No wheelchair access" }, "geometry": { "type": "Point", "coordinates": [ 151.180491962743986, -33.902343564198198 ] } },
{ "type": "Feature", "properties": { "OBJECTID": 153, "site_name": "Union Street Reserve", "Suburb": "Newtown", "Location": "Park", "Accessible": "No wheelchair access" }, "geometry": { "type": "Point", "coordinates": [ 151.180980673173991, -33.902851786885101 ] } },
{ "type": "Feature", "properties": { "OBJECTID": 154, "site_name": "4090 Erskineville Road", "Suburb": "Erskineville", "Location": "Footway", "Accessible": "No wheelchair access" }, "geometry": { "type": "Point", "coordinates": [ 151.183445959376002, -33.899372046008097 ] } },
{ "type": "Feature", "properties": { "OBJECTID": 155, "site_name": "5010 Morrissey Road", "Suburb": "Erskineville", "Location": "Property", "Accessible": "No wheelchair access" }, "geometry": { "type": "Point", "coordinates": [ 151.18369657039301, -33.901087594331003 ] } },
{ "type": "Feature", "properties": { "OBJECTID": 156, "site_name": "Chelsea St Playground", "Suburb": "Redfern", "Location": "Park", "Accessible": "No wheelchair access" }, "geometry": { "type": "Point", "coordinates": [ 151.214871441230002, -33.893110448143403 ] } },
{ "type": "Feature", "properties": { "OBJECTID": 157, "site_name": "Nuffield Park", "Suburb": "Zetland", "Location": "Park", "Accessible": "No wheelchair access" }, "geometry": { "type": "Point", "coordinates": [ 151.21093170464701, -33.907545675779701 ] } },
{ "type": "Feature", "properties": { "OBJECTID": 158, "site_name": "Elizabeth Healy Reserve", "Suburb": "Pyrmont", "Location": "Reserve", "Accessible": "No wheelchair access" }, "geometry": { "type": "Point", "coordinates": [ 151.195109881192991, -33.871398667562197 ] } },
{ "type": "Feature", "properties": { "OBJECTID": 159, "site_name": "Wynyard Park", "Suburb": "Sydney", "Location": "Park", "Accessible": "No wheelchair access" }, "geometry": { "type": "Point", "coordinates": [ 151.206045478425011, -33.866920453852003 ] } },
{ "type": "Feature", "properties": { "OBJECTID": 160, "site_name": "Cook and Phillip Park", "Suburb": "Woolloomooloo", "Location": "Park", "Accessible": "No wheelchair access" }, "geometry": { "type": "Point", "coordinates": [ 151.214471462478002, -33.872179451788298 ] } },
{ "type": "Feature", "properties": { "OBJECTID": 161, "site_name": "Vine Street Playground 1", "Suburb": "Darlington", "Location": "Park", "Accessible": "No wheelchair access" }, "geometry": { "type": "Point", "coordinates": [ 151.196774639533004, -33.888797485330997 ] } },
{ "type": "Feature", "properties": { "OBJECTID": 162, "site_name": "4060 George Street", "Suburb": "Waterloo", "Location": "Footway", "Accessible": "No wheelchair access" }, "geometry": { "type": "Point", "coordinates": [ 151.204838537276004, -33.902488245798097 ] } },
{ "type": "Feature", "properties": { "OBJECTID": 163, "site_name": "Eddie Ward Park", "Suburb": "Surry Hills", "Location": "Park", "Accessible": "No wheelchair access" }, "geometry": { "type": "Point", "coordinates": [ 151.211125626891999, -33.888768685214202 ] } },
{ "type": "Feature", "properties": { "OBJECTID": 164, "site_name": "Moore Park", "Suburb": "Moore Park", "Location": "Park", "Accessible": "Wheelchair accessible" }, "geometry": { "type": "Point", "coordinates": [ 151.222675457636996, -33.893012301998198 ] } },
{ "type": "Feature", "properties": { "OBJECTID": 165, "site_name": "Moore Park", "Suburb": "Moore Park", "Location": "Park", "Accessible": "No wheelchair access" }, "geometry": { "type": "Point", "coordinates": [ 151.22245297389901, -33.8904097283718 ] } },
{ "type": "Feature", "properties": { "OBJECTID": 166, "site_name": "Hollis Park", "Suburb": "Newtown", "Location": "Park", "Accessible": "No wheelchair access" }, "geometry": { "type": "Point", "coordinates": [ 151.185949671749, -33.894471681691599 ] } },
{ "type": "Feature", "properties": { "OBJECTID": 167, "site_name": "Daniel Dawson Playground", "Suburb": "Alexandria", "Location": "Park", "Accessible": "No wheelchair access" }, "geometry": { "type": "Point", "coordinates": [ 151.198435100762993, -33.895312132067701 ] } },
{ "type": "Feature", "properties": { "OBJECTID": 168, "site_name": "May Pitt Playground", "Suburb": "Forest Lodge", "Location": "Park", "Accessible": "No wheelchair access" }, "geometry": { "type": "Point", "coordinates": [ 151.181572354623, -33.8838369912567 ] } },
{ "type": "Feature", "properties": { "OBJECTID": 169, "site_name": "5010 O'Connell Street", "Suburb": "Newtown", "Location": "Park", "Accessible": "No wheelchair access" }, "geometry": { "type": "Point", "coordinates": [ 151.182208317976006, -33.892687803127998 ] } },
{ "type": "Feature", "properties": { "OBJECTID": 170, "site_name": "Glebe Foreshore Walk East", "Suburb": "Glebe", "Location": "Park", "Accessible": "Wheelchair accessible" }, "geometry": { "type": "Point", "coordinates": [ 151.186584095688005, -33.873183353867503 ] } },
{ "type": "Feature", "properties": { "OBJECTID": 171, "site_name": "Harmony Park (Surry Hills Park)", "Suburb": "Surry Hills", "Location": "Park", "Accessible": "Wheelchair accessible" }, "geometry": { "type": "Point", "coordinates": [ 151.212419565608997, -33.879206826248797 ] } },
{ "type": "Feature", "properties": { "OBJECTID": 172, "site_name": "Harmony Park (Surry Hills Park)", "Suburb": "Surry Hills", "Location": "Park", "Accessible": "Wheelchair accessible" }, "geometry": { "type": "Point", "coordinates": [ 151.211912118918008, -33.880013374227701 ] } },
{ "type": "Feature", "properties": { "OBJECTID": 173, "site_name": "Bicentennial Park 1", "Suburb": "Glebe", "Location": "Park", "Accessible": "Wheelchair accessible" }, "geometry": { "type": "Point", "coordinates": [ 151.179438211100006, -33.871820672028001 ] } },
{ "type": "Feature", "properties": { "OBJECTID": 174, "site_name": "Thomas Portley Reserve", "Suburb": "Glebe", "Location": "Reserve", "Accessible": "No wheelchair access" }, "geometry": { "type": "Point", "coordinates": [ 151.190195148071012, -33.876771809794903 ] } },
{ "type": "Feature", "properties": { "OBJECTID": 175, "site_name": "Ernest Wright Playground", "Suburb": "Newtown", "Location": "Park", "Accessible": "No wheelchair access" }, "geometry": { "type": "Point", "coordinates": [ 151.181221254339988, -33.894375976396297 ] } },
{ "type": "Feature", "properties": { "OBJECTID": 176, "site_name": "Wentworth Park", "Suburb": "Glebe", "Location": "Park", "Accessible": "No wheelchair access" }, "geometry": { "type": "Point", "coordinates": [ 151.194500167905005, -33.879220709608298 ] } },
{ "type": "Feature", "properties": { "OBJECTID": 177, "site_name": "Wentworth Park", "Suburb": "Glebe", "Location": "Park", "Accessible": "Wheelchair accessible" }, "geometry": { "type": "Point", "coordinates": [ 151.194618920504013, -33.877868849582804 ] } },
{ "type": "Feature", "properties": { "OBJECTID": 178, "site_name": "Wentworth Park", "Suburb": "Glebe", "Location": "Park", "Accessible": "No wheelchair access" }, "geometry": { "type": "Point", "coordinates": [ 151.193472515477993, -33.875642512450298 ] } },
{ "type": "Feature", "properties": { "OBJECTID": 179, "site_name": "Wentworth Park", "Suburb": "Glebe", "Location": "Park", "Accessible": "No wheelchair access" }, "geometry": { "type": "Point", "coordinates": [ 151.191927722498008, -33.875403162206801 ] } },
{ "type": "Feature", "properties": { "OBJECTID": 180, "site_name": "Wentworth Park", "Suburb": "Glebe", "Location": "Park", "Accessible": "No wheelchair access" }, "geometry": { "type": "Point", "coordinates": [ 151.191945899985001, -33.8756176821515 ] } },
{ "type": "Feature", "properties": { "OBJECTID": 181, "site_name": "Sydney Park", "Suburb": "Alexandria", "Location": "Park", "Accessible": "Wheelchair accessible" }, "geometry": { "type": "Point", "coordinates": [ 151.184871626659998, -33.914160394731503 ] } },
{ "type": "Feature", "properties": { "OBJECTID": 182, "site_name": "4220 Cleveland Street", "Suburb": "Moore Park", "Location": "Park", "Accessible": "No wheelchair access" }, "geometry": { "type": "Point", "coordinates": [ 151.221273590045996, -33.894905200507601 ] } },
{ "type": "Feature", "properties": { "OBJECTID": 183, "site_name": "Moore Park", "Suburb": "Moore Park", "Location": "Park", "Accessible": "No wheelchair access" }, "geometry": { "type": "Point", "coordinates": [ 151.21819171932799, -33.890308211059597 ] } },
{ "type": "Feature", "properties": { "OBJECTID": 184, "site_name": "Federal Park 1", "Suburb": "Annandale", "Location": "Park", "Accessible": "Wheelchair accessible" }, "geometry": { "type": "Point", "coordinates": [ 151.17679821872801, -33.874433278211299 ] } },
{ "type": "Feature", "properties": { "OBJECTID": 185, "site_name": "Blackwattle Bay Park", "Suburb": "Glebe", "Location": "Park", "Accessible": "Wheelchair accessible" }, "geometry": { "type": "Point", "coordinates": [ 151.184789379059993, -33.8713229690253 ] } },
{ "type": "Feature", "properties": { "OBJECTID": 186, "site_name": "Arthur McElhone Reserve", "Suburb": "Elizabeth Bay", "Location": "Park", "Accessible": "No wheelchair access" }, "geometry": { "type": "Point", "coordinates": [ 151.226623450440002, -33.869741706608799 ] } },
{ "type": "Feature", "properties": { "OBJECTID": 187, "site_name": "Frog Hollow Reserve", "Suburb": "Surry Hills", "Location": "Park", "Accessible": "Wheelchair accessible" }, "geometry": { "type": "Point", "coordinates": [ 151.212517928946994, -33.8830018823366 ] } },
{ "type": "Feature", "properties": { "OBJECTID": 188, "site_name": "Alexandria Park", "Suburb": "Alexandria", "Location": "Park", "Accessible": "No wheelchair access" }, "geometry": { "type": "Point", "coordinates": [ 151.197476196574002, -33.900772366688102 ] } },
{ "type": "Feature", "properties": { "OBJECTID": 189, "site_name": "Edmund Resch Reserve", "Suburb": "Redfern", "Location": "Reserve", "Accessible": "Wheelchair accessible" }, "geometry": { "type": "Point", "coordinates": [ 151.215009473896998, -33.896132648880602 ] } },
{ "type": "Feature", "properties": { "OBJECTID": 190, "site_name": "Bannerman Cres.Reserve", "Suburb": "Rosebery", "Location": "Park", "Accessible": "Wheelchair accessible" }, "geometry": { "type": "Point", "coordinates": [ 151.210908886829003, -33.9196479232507 ] } },
{ "type": "Feature", "properties": { "OBJECTID": 191, "site_name": "Belmore Park (west of Railway)", "Suburb": "Haymarket", "Location": "Park", "Accessible": "No wheelchair access" }, "geometry": { "type": "Point", "coordinates": [ 151.207400102263989, -33.880508321867097 ] } },
{ "type": "Feature", "properties": { "OBJECTID": 192, "site_name": "Redfern Park", "Suburb": "Redfern", "Location": "Park", "Accessible": "Wheelchair accessible" }, "geometry": { "type": "Point", "coordinates": [ 151.206878232571, -33.893506165007302 ] } },
{ "type": "Feature", "properties": { "OBJECTID": 193, "site_name": "Redfern Park", "Suburb": "Redfern", "Location": "Park", "Accessible": "Wheelchair accessible" }, "geometry": { "type": "Point", "coordinates": [ 151.205538925212011, -33.893748434010199 ] } },
{ "type": "Feature", "properties": { "OBJECTID": 194, "site_name": "Waterloo Park and Oval", "Suburb": "Waterloo", "Location": "Park", "Accessible": "No wheelchair access" }, "geometry": { "type": "Point", "coordinates": [ 151.205134346443003, -33.902280017877104 ] } },
{ "type": "Feature", "properties": { "OBJECTID": 195, "site_name": "Sydney Park", "Suburb": "Alexandria", "Location": "Park", "Accessible": "Wheelchair accessible" }, "geometry": { "type": "Point", "coordinates": [ 151.187069270595998, -33.909186710214001 ] } },
{ "type": "Feature", "properties": { "OBJECTID": 196, "site_name": "Peace Park", "Suburb": "Chippendale", "Location": "Park", "Accessible": "No wheelchair access" }, "geometry": { "type": "Point", "coordinates": [ 151.196599537981001, -33.887063584497 ] } },
{ "type": "Feature", "properties": { "OBJECTID": 197, "site_name": "Wattle & Broadway Rest Area", "Suburb": "Ultimo", "Location": "Footway", "Accessible": "No wheelchair access" }, "geometry": { "type": "Point", "coordinates": [ 151.198315200714006, -33.8841034850917 ] } },
{ "type": "Feature", "properties": { "OBJECTID": 198, "site_name": "4020 Barcom Avenue", "Suburb": "Darlinghurst", "Location": "Reserve", "Accessible": "Wheelchair accessible" }, "geometry": { "type": "Point", "coordinates": [ 151.220446802790008, -33.881204624063997 ] } },
{ "type": "Feature", "properties": { "OBJECTID": 199, "site_name": "Jubilee Park", "Suburb": "Glebe", "Location": "Park", "Accessible": "Wheelchair accessible" }, "geometry": { "type": "Point", "coordinates": [ 151.178551391033011, -33.873715548951701 ] } },
{ "type": "Feature", "properties": { "OBJECTID": 200, "site_name": "M J (Paddy) Doherty Reserve", "Suburb": "Glebe", "Location": "Park", "Accessible": "Wheelchair accessible" }, "geometry": { "type": "Point", "coordinates": [ 151.192406876544993, -33.879318509650503 ] } },
{ "type": "Feature", "properties": { "OBJECTID": 201, "site_name": "Hyde Park South", "Suburb": "Sydney", "Location": "Park", "Accessible": "No wheelchair access" }, "geometry": { "type": "Point", "coordinates": [ 151.211948783455, -33.875903404038297 ] } },
{ "type": "Feature", "properties": { "OBJECTID": 202, "site_name": "Hyde Park South", "Suburb": "Sydney", "Location": "Park", "Accessible": "No wheelchair access" }, "geometry": { "type": "Point", "coordinates": [ 151.211754967777011, -33.876446325464599 ] } },
{ "type": "Feature", "properties": { "OBJECTID": 203, "site_name": "Hyde Park South", "Suburb": "Sydney", "Location": "Park", "Accessible": "No wheelchair access" }, "geometry": { "type": "Point", "coordinates": [ 151.210013171182993, -33.876355022449602 ] } },
{ "type": "Feature", "properties": { "OBJECTID": 204, "site_name": "Hyde Park South", "Suburb": "Sydney", "Location": "Park", "Accessible": "No wheelchair access" }, "geometry": { "type": "Point", "coordinates": [ 151.20984006582799, -33.875564113928903 ] } },
{ "type": "Feature", "properties": { "OBJECTID": 205, "site_name": "Turruwul Park", "Suburb": "Rosebery", "Location": "Park", "Accessible": "Wheelchair accessible" }, "geometry": { "type": "Point", "coordinates": [ 151.20434907119099, -33.918847629248503 ] } },
{ "type": "Feature", "properties": { "OBJECTID": 206, "site_name": "Burren Street Reserve 2", "Suburb": "Erskineville", "Location": "Reserve", "Accessible": "Wheelchair accessible" }, "geometry": { "type": "Point", "coordinates": [ 151.185355780630005, -33.897698538221597 ] } },
{ "type": "Feature", "properties": { "OBJECTID": 207, "site_name": "Embarkation Park", "Suburb": "Potts Point", "Location": "Park", "Accessible": "Wheelchair accessible" }, "geometry": { "type": "Point", "coordinates": [ 151.223348654798002, -33.867929811190599 ] } },
{ "type": "Feature", "properties": { "OBJECTID": 208, "site_name": "Fig Lane Park", "Suburb": "Ultimo", "Location": "Park", "Accessible": "Wheelchair accessible" }, "geometry": { "type": "Point", "coordinates": [ 151.195999626413993, -33.875546447059399 ] } },
{ "type": "Feature", "properties": { "OBJECTID": 209, "site_name": "Pirrama Park", "Suburb": "Pyrmont", "Location": "Park", "Accessible": "Wheelchair accessible" }, "geometry": { "type": "Point", "coordinates": [ 151.191737327390996, -33.863810939192298 ] } },
{ "type": "Feature", "properties": { "OBJECTID": 210, "site_name": "Bicentennial Park 1", "Suburb": "Glebe", "Location": "Park", "Accessible": "Wheelchair accessible" }, "geometry": { "type": "Point", "coordinates": [ 151.179570009011002, -33.872608753860597 ] } },
{ "type": "Feature", "properties": { "OBJECTID": 211, "site_name": "Bicentennial Park 1", "Suburb": "Glebe", "Location": "Park", "Accessible": "Wheelchair accessible" }, "geometry": { "type": "Point", "coordinates": [ 151.177703634512, -33.872693067318302 ] } },
{ "type": "Feature", "properties": { "OBJECTID": 212, "site_name": "Sydney Park", "Suburb": "Alexandria", "Location": "Park", "Accessible": "Wheelchair accessible" }, "geometry": { "type": "Point", "coordinates": [ 151.18244200110999, -33.908913803098997 ] } },
{ "type": "Feature", "properties": { "OBJECTID": 213, "site_name": "Sydney Park", "Suburb": "Alexandria", "Location": "Park", "Accessible": "Wheelchair accessible" }, "geometry": { "type": "Point", "coordinates": [ 151.182757396233001, -33.909207914278603 ] } },
{ "type": "Feature", "properties": { "OBJECTID": 214, "site_name": "Barracks Square", "Suburb": "Sydney", "Location": "Footway", "Accessible": "No wheelchair access" }, "geometry": { "type": "Point", "coordinates": [ 151.212371008816007, -33.869348087633597 ] } },
{ "type": "Feature", "properties": { "OBJECTID": 215, "site_name": "Dr H J Foley Rest Park", "Suburb": "Glebe", "Location": "Park", "Accessible": "Wheelchair accessible" }, "geometry": { "type": "Point", "coordinates": [ 151.186322645945012, -33.8802717622995 ] } },
{ "type": "Feature", "properties": { "OBJECTID": 216, "site_name": "Redfern Park", "Suburb": "Redfern", "Location": "Park", "Accessible": "Wheelchair accessible" }, "geometry": { "type": "Point", "coordinates": [ 151.206579265671991, -33.8953490247739 ] } },
{ "type": "Feature", "properties": { "OBJECTID": 217, "site_name": "Millard Reserve", "Suburb": "Glebe", "Location": "Park", "Accessible": "Wheelchair accessibility unknown" }, "geometry": { "type": "Point", "coordinates": [ 151.192214253025014, -33.878230350572998 ] } },
{ "type": "Feature", "properties": { "OBJECTID": 218, "site_name": "Mary Ann Street Park", "Suburb": "Ultimo", "Location": "Park", "Accessible": "Wheelchair accessible" }, "geometry": { "type": "Point", "coordinates": [ 151.198729780821992, -33.8807116142005 ] } },
{ "type": "Feature", "properties": { "OBJECTID": 219, "site_name": "Ethel Turner Park", "Suburb": "Paddington", "Location": "Park", "Accessible": "Wheelchair accessible" }, "geometry": { "type": "Point", "coordinates": [ 151.225530655936012, -33.887009355348198 ] } },
{ "type": "Feature", "properties": { "OBJECTID": 220, "site_name": "Dibbs St Reserve", "Suburb": "Alexandria", "Location": "Reserve", "Accessible": "Wheelchair accessible" }, "geometry": { "type": "Point", "coordinates": [ 151.191850794000999, -33.899950568434299 ] } },
{ "type": "Feature", "properties": { "OBJECTID": 221, "site_name": "Elizabeth McCrea Playground", "Suburb": "Redfern", "Location": "Park", "Accessible": "Wheelchair accessible" }, "geometry": { "type": "Point", "coordinates": [ 151.212493950990989, -33.895779564333097 ] } },
{ "type": "Feature", "properties": { "OBJECTID": 222, "site_name": "Prince Alfred Park", "Suburb": "Surry Hills", "Location": "Park", "Accessible": "Wheelchair accessible" }, "geometry": { "type": "Point", "coordinates": [ 151.202918058107002, -33.889077627699997 ] } },
{ "type": "Feature", "properties": { "OBJECTID": 223, "site_name": "Prince Alfred Park", "Suburb": "Surry Hills", "Location": "Park", "Accessible": "Wheelchair accessible" }, "geometry": { "type": "Point", "coordinates": [ 151.204954821569999, -33.887415934021398 ] } },
{ "type": "Feature", "properties": { "OBJECTID": 224, "site_name": "Prince Alfred Park", "Suburb": "Surry Hills", "Location": "Park", "Accessible": "Wheelchair accessible" }, "geometry": { "type": "Point", "coordinates": [ 151.206700205570002, -33.886147810925401 ] } },
{ "type": "Feature", "properties": { "OBJECTID": 225, "site_name": "Erskineville Park and Oval", "Suburb": "Erskineville", "Location": "Park", "Accessible": "Wheelchair accessible" }, "geometry": { "type": "Point", "coordinates": [ 151.190203883412011, -33.901560051027197 ] } },
{ "type": "Feature", "properties": { "OBJECTID": 226, "site_name": "Pitt Street Mall", "Suburb": "Sydney", "Location": "Footway", "Accessible": "Wheelchair accessible" }, "geometry": { "type": "Point", "coordinates": [ 151.208243975834989, -33.870096100447498 ] } },
{ "type": "Feature", "properties": { "OBJECTID": 227, "site_name": "Pitt Street Mall", "Suburb": "Sydney", "Location": "Footway", "Accessible": "Wheelchair accessible" }, "geometry": { "type": "Point", "coordinates": [ 151.208305197555006, -33.869794365904099 ] } },
{ "type": "Feature", "properties": { "OBJECTID": 228, "site_name": "Pitt Street Mall", "Suburb": "Sydney", "Location": "Footway", "Accessible": "Wheelchair accessible" }, "geometry": { "type": "Point", "coordinates": [ 151.208268013050997, -33.869339076269902 ] } },
{ "type": "Feature", "properties": { "OBJECTID": 229, "site_name": "Pitt Street Mall", "Suburb": "Sydney", "Location": "Footway", "Accessible": "Wheelchair accessible" }, "geometry": { "type": "Point", "coordinates": [ 151.208331251337995, -33.869080474302997 ] } },
{ "type": "Feature", "properties": { "OBJECTID": 230, "site_name": "Eddie Ward Park", "Suburb": "Surry Hills", "Location": "Park", "Accessible": "Wheelchair accessible" }, "geometry": { "type": "Point", "coordinates": [ 151.211875865974008, -33.888977961810397 ] } },
{ "type": "Feature", "properties": { "OBJECTID": 231, "site_name": "Victoria Park", "Suburb": "Camperdown", "Location": "Park", "Accessible": "Wheelchair accessible" }, "geometry": { "type": "Point", "coordinates": [ 151.193044072943991, -33.886917787521398 ] } },
{ "type": "Feature", "properties": { "OBJECTID": 232, "site_name": "Wentworth Park", "Suburb": "Glebe", "Location": "Park", "Accessible": "Wheelchair accessible" }, "geometry": { "type": "Point", "coordinates": [ 151.194352287695011, -33.878758024081399 ] } },
{ "type": "Feature", "properties": { "OBJECTID": 233, "site_name": "5040 MacDonald Street", "Suburb": "Erskineville", "Location": "Footway", "Accessible": "Wheelchair accessible" }, "geometry": { "type": "Point", "coordinates": [ 151.184680262440992, -33.903936699242301 ] } },
{ "type": "Feature", "properties": { "OBJECTID": 234, "site_name": "Flora & Knight Reserve", "Suburb": "Erskineville", "Location": "Reserve", "Accessible": "No wheelchair access" }, "geometry": { "type": "Point", "coordinates": [ 151.183306997589, -33.904239899790703 ] } },
{ "type": "Feature", "properties": { "OBJECTID": 235, "site_name": "Matron Ruby Grant Park - 3 Joynton Ave", "Suburb": "Zetland", "Location": "Park", "Accessible": "Wheelchair accessibility unknown" }, "geometry": { "type": "Point", "coordinates": [ 151.206108211393001, -33.909096104640803 ] } },
{ "type": "Feature", "properties": { "OBJECTID": 236, "site_name": "Matron Ruby Grant Park - 3 Joynton Ave", "Suburb": "Zetland", "Location": "Park", "Accessible": "Wheelchair accessibility unknown" }, "geometry": { "type": "Point", "coordinates": [ 151.206042574186995, -33.9088478920835 ] } },
{ "type": "Feature", "properties": { "OBJECTID": 237, "site_name": "Glebe Foreshore Walk Stage 5", "Suburb": "Glebe", "Location": "Park", "Accessible": "Wheelchair accessibility unknown" }, "geometry": { "type": "Point", "coordinates": [ 151.189229944668995, -33.875860937882599 ] } },
{ "type": "Feature", "properties": { "OBJECTID": 238, "site_name": "The Rope Walk", "Suburb": "Waterloo", "Location": "Park", "Accessible": "Wheelchair accessibility unknown" }, "geometry": { "type": "Point", "coordinates": [ 151.210748192632991, -33.901655828605499 ] } },
{ "type": "Feature", "properties": { "OBJECTID": 239, "site_name": "Sydney Park", "Suburb": "Alexandria", "Location": "Park", "Accessible": "Wheelchair accessibility unknown" }, "geometry": { "type": "Point", "coordinates": [ 151.184012688438003, -33.911951109181302 ] } },
{ "type": "Feature", "properties": { "OBJECTID": 240, "site_name": "Sydney Park", "Suburb": "Alexandria", "Location": "Park", "Accessible": "Wheelchair accessibility unknown" }, "geometry": { "type": "Point", "coordinates": [ 151.186104191661002, -33.911077499309599 ] } },
{ "type": "Feature", "properties": { "OBJECTID": 241, "site_name": "Sydney Park", "Suburb": "Alexandria", "Location": "Park", "Accessible": "Wheelchair accessibility unknown" }, "geometry": { "type": "Point", "coordinates": [ 151.184182004412008, -33.9140081135114 ] } },
{ "type": "Feature", "properties": { "OBJECTID": 242, "site_name": "Sydney Park", "Suburb": "Alexandria", "Location": "Park", "Accessible": "Wheelchair accessibility unknown" }, "geometry": { "type": "Point", "coordinates": [ 151.182262995987998, -33.912657858988901 ] } },
{ "type": "Feature", "properties": { "OBJECTID": 243, "site_name": "Turruwul Park", "Suburb": "Rosebery", "Location": "Park", "Accessible": "Wheelchair accessibility unknown" }, "geometry": { "type": "Point", "coordinates": [ 151.203824335473001, -33.9200345039567 ] } },
{ "type": "Feature", "properties": { "OBJECTID": 244, "site_name": "Waterloo Park & Mount Carmel", "Suburb": "Waterloo", "Location": "Park", "Accessible": "Wheelchair accessibility unknown" }, "geometry": { "type": "Point", "coordinates": [ 151.204335245327002, -33.899192811126397 ] } },
{ "type": "Feature", "properties": { "OBJECTID": 245, "site_name": "Observatory Hill Park", "Suburb": "Millers Point", "Location": "Park", "Accessible": "Wheelchair accessibility unknown" }, "geometry": { "type": "Point", "coordinates": [ 151.205863840641996, -33.859415305876297 ] } },
{ "type": "Feature", "properties": { "OBJECTID": 246, "site_name": "Bicentennial Park 2", "Suburb": "Annandale", "Location": "Park", "Accessible": "Wheelchair accessibility unknown" }, "geometry": { "type": "Point", "coordinates": [ 151.176411793156007, -33.873683716708499 ] } },
{ "type": "Feature", "properties": { "OBJECTID": 247, "site_name": "Pinkstone Playground", "Suburb": "Erskineville", "Location": "Park", "Accessible": "Wheelchair accessibility unknown" }, "geometry": { "type": "Point", "coordinates": [ 151.183315648303989, -33.898719793127597 ] } },
{ "type": "Feature", "properties": { "OBJECTID": 248, "site_name": "Bicentennial Park 2", "Suburb": "Annandale", "Location": "Park", "Accessible": "Wheelchair accessibility unknown" }, "geometry": { "type": "Point", "coordinates": [ 151.175802823032001, -33.873318515421502 ] } },
{ "type": "Feature", "properties": { "OBJECTID": 249, "site_name": "Harold Park", "Suburb": "Forest Lodge", "Location": "Park", "Accessible": "Wheelchair accessibility unknown" }, "geometry": { "type": "Point", "coordinates": [ 151.179367169138999, -33.877984975711001 ] } },
{ "type": "Feature", "properties": { "OBJECTID": 250, "site_name": "John St Reserve", "Suburb": "Glebe", "Location": "Park", "Accessible": "Wheelchair accessibility unknown" }, "geometry": { "type": "Point", "coordinates": [ 151.184098840092986, -33.880481297924 ] } },
{ "type": "Feature", "properties": { "OBJECTID": 251, "site_name": "St James Park", "Suburb": "Glebe", "Location": "Park", "Accessible": "Wheelchair accessibility unknown" }, "geometry": { "type": "Point", "coordinates": [ 151.184342838358987, -33.880288135497999 ] } },
{ "type": "Feature", "properties": { "OBJECTID": 252, "site_name": "Rushcutters Bay Park", "Suburb": "Rushcutters Bay", "Location": "Park", "Accessible": "Wheelchair accessibility unknown" }, "geometry": { "type": "Point", "coordinates": [ 151.228478017342013, -33.8739227312144 ] } },
{ "type": "Feature", "properties": { "OBJECTID": 253, "site_name": "Woolloomooloo Playground", "Suburb": "Woolloomooloo", "Location": "Park", "Accessible": "Wheelchair accessibility unknown" }, "geometry": { "type": "Point", "coordinates": [ 151.221193378413005, -33.871362858306703 ] } },
{ "type": "Feature", "properties": { "OBJECTID": 254, "site_name": "Pirrama Park", "Suburb": "Pyrmont", "Location": "Park", "Accessible": "Wheelchair accessibility unknown" }, "geometry": { "type": "Point", "coordinates": [ 151.192006569413991, -33.864888412113103 ] } },
{ "type": "Feature", "properties": { "OBJECTID": 255, "site_name": "Fitzroy Gardens", "Suburb": "Elizabeth Bay", "Location": "Park", "Accessible": "Wheelchair accessibility unknown" }, "geometry": { "type": "Point", "coordinates": [ 151.225661273724, -33.872518576802896 ] } },
{ "type": "Feature", "properties": { "OBJECTID": 256, "site_name": "Wulaba Park", "Suburb": "Waterloo", "Location": "Park", "Accessible": "Wheelchair accessible" }, "geometry": { "type": "Point", "coordinates": [ 151.213604084459007, -33.902351500527203 ] } },
{ "type": "Feature", "properties": { "OBJECTID": 257, "site_name": "Wulaba Park", "Suburb": "Waterloo", "Location": "Park", "Accessible": "Wheelchair accessible" }, "geometry": { "type": "Point", "coordinates": [ 151.213468777260999, -33.902907083162397 ] } },
{ "type": "Feature", "properties": { "OBJECTID": 258, "site_name": "Waterloo Park and Oval", "Suburb": "Waterloo", "Location": "Park", "Accessible": "Wheelchair accessible" }, "geometry": { "type": "Point", "coordinates": [ 151.205389961755003, -33.902064891326702 ] } },
{ "type": "Feature", "properties": { "OBJECTID": 259, "site_name": "Sweet Acres", "Suburb": "Rosebery", "Location": "Park", "Accessible": "Wheelchair accessible" }, "geometry": { "type": "Point", "coordinates": [ 151.205461521860002, -33.913081285540699 ] } },
{ "type": "Feature", "properties": { "OBJECTID": 260, "site_name": "4020 Wentworth Avenue", "Suburb": "Sydney", "Location": "Footway", "Accessible": "Wheelchair accessible" }, "geometry": { "type": "Point", "coordinates": [ 151.210796495066006, -33.878687305493699 ] } },
{ "type": "Feature", "properties": { "OBJECTID": 261, "site_name": "Chippendale Green", "Suburb": "Chippendale", "Location": "Park", "Accessible": "Wheelchair accessibility unknown" }, "geometry": { "type": "Point", "coordinates": [ 151.199990209255986, -33.885558762504303 ] } },
{ "type": "Feature", "properties": { "OBJECTID": 262, "site_name": "Albert Sloss Reserve", "Suburb": "Darlinghurst", "Location": "Park", "Accessible": "Wheelchair accessibility unknown" }, "geometry": { "type": "Point", "coordinates": [ 151.216195882308, -33.8780057981038 ] } },
{ "type": "Feature", "properties": { "OBJECTID": 263, "site_name": "Renwick St Playground", "Suburb": "Alexandria", "Location": "Park", "Accessible": "Wheelchair accessibility unknown" }, "geometry": { "type": "Point", "coordinates": [ 151.190992345488013, -33.899865462056297 ] } },
{ "type": "Feature", "properties": { "OBJECTID": 264, "site_name": "5030 Hickson Road", "Suburb": "Dawes Point", "Location": "Unknown", "Accessible": "Wheelchair accessibility unknown" }, "geometry": { "type": "Point", "coordinates": [ 151.208628920995011, -33.853636125572301 ] } },
{ "type": "Feature", "properties": { "OBJECTID": 265, "site_name": "Green Ban Parks", "Suburb": "Erskineville", "Location": "Park", "Accessible": "Wheelchair accessibility unknown" }, "geometry": { "type": "Point", "coordinates": [ 151.181733956963001, -33.8980459402094 ] } },
{ "type": "Feature", "properties": { "OBJECTID": 266, "site_name": "Rochford Street Playground", "Suburb": "Erskineville", "Location": "Reserve", "Accessible": "Wheelchair accessibility unknown" }, "geometry": { "type": "Point", "coordinates": [ 151.182147591921989, -33.902283522427702 ] } },
{ "type": "Feature", "properties": { "OBJECTID": 267, "site_name": "Nita McCrae Park, 17 Argyle Street", "Suburb": "Millers Point", "Location": "Park", "Accessible": "Wheelchair accessibility unknown" }, "geometry": { "type": "Point", "coordinates": [ 151.203954978136011, -33.858668087381098 ] } },
{ "type": "Feature", "properties": { "OBJECTID": 268, "site_name": "906 Bourke Street", "Suburb": "Zetland", "Location": "Park", "Accessible": "Wheelchair accessibility unknown" }, "geometry": { "type": "Point", "coordinates": [ 151.206667446694013, -33.904207544860398 ] } },
{ "type": "Feature", "properties": { "OBJECTID": 269, "site_name": "Womerah Gardens", "Suburb": "Darlinghurst", "Location": "Park", "Accessible": "Wheelchair accessibility unknown" }, "geometry": { "type": "Point", "coordinates": [ 151.226221520368, -33.876727064643802 ] } },
{ "type": "Feature", "properties": { "OBJECTID": 270, "site_name": "9A Rosebery Avenue", "Suburb": "Rosebery", "Location": "Park", "Accessible": "Wheelchair accessibility unknown" }, "geometry": { "type": "Point", "coordinates": [ 151.206722391102005, -33.9142485579629 ] } },
{ "type": "Feature", "properties": { "OBJECTID": 271, "site_name": "Michael Kelly Rest Area", "Suburb": "Newtown", "Location": "Park", "Accessible": "Wheelchair accessibility unknown" }, "geometry": { "type": "Point", "coordinates": [ 151.18480154485701, -33.8942718036066 ] } },
{ "type": "Feature", "properties": { "OBJECTID": 272, "site_name": "Sydney Park", "Suburb": "Alexandria", "Location": "Park", "Accessible": "Wheelchair accessibility unknown" }, "geometry": { "type": "Point", "coordinates": [ 151.184322871424001, -33.913169776211198 ] } },
{ "type": "Feature", "properties": { "OBJECTID": 273, "site_name": "Lawrence Hargrave Reserve", "Suburb": "Elizabeth Bay", "Location": "Park", "Accessible": "Wheelchair accessibility unknown" }, "geometry": { "type": "Point", "coordinates": [ 151.226306155901995, -33.873075943637403 ] } }
]
}
