{
"type": "FeatureCollection",
"name": "Dog_off-leash_parks",
"crs": { "type": "name", "properties": { "name": "urn:ogc:def:crs:OGC:1.3:CRS84" } },
"features": [
{ "type": "Feature", "properties": { "OBJECTID": 1, "Street": "Ithaca Road", "Suburb": "Elizabeth Bay", "Postcode": 2011, "Agency": "City of Sydney", "ParkName": "Beare Park", "OffLeashTime": "between 4:30pm and 9:30am", "ProhibitedAreas": "Playground", "OffLeashDescription": "Dog off-leash allowed between 4:30pm and 9:30am seven days a week." }, "geometry": { "type": "Point", "coordinates": [ 151.229495426822012, -33.870547317670102 ] } },
{ "type": "Feature", "properties": { "OBJECTID": 2, "Street": "Abercrombie Street", "Suburb": "Darlington", "Postcode": 2008, "Agency": "City of Sydney", "ParkName": "Charles Kernan Reserve", "OffLeashTime": "At all times", "ProhibitedAreas": "Playground", "OffLeashDescription": "Dog off-leash allowed at all times." }, "geometry": { "type": "Point", "coordinates": [ 151.194745428007991, -33.891807313735299 ] } },
{ "type": "Feature", "properties": { "OBJECTID": 3, "Street": "Marlborough Street, corner Devonshire Street", "Suburb": "Surry Hills", "Postcode": 2010, "Agency": "City of Sydney", "ParkName": "Eddie Ward Park", "OffLeashTime": "At all times", "ProhibitedAreas": "Playgrounds, skate bowl, barbecue areas", "OffLeashDescription": "Dog off-leash allowed at all times." }, "geometry": { "type": "Point", "coordinates": [ 151.211335426664988, -33.888527316052603 ] } },
{ "type": "Feature", "properties": { "OBJECTID": 4, "Street": "121-131 Campbell Street", "Suburb": "Surry Hills", "Postcode": 2010, "Agency": "City of Sydney", "ParkName": "James Hilder Reserve", "OffLeashTime": "At all times", "ProhibitedAreas": "Playground", "OffLeashDescription": "This park is an off-leash area for dogs at all times. Not allowed in playground." }, "geometry": { "type": "Point", "coordinates": [ 151.212705428544012, -33.880657315348898 ] } },
{ "type": "Feature", "properties": { "OBJECTID": 5, "Street": "26 Rothschild Avenue", "Suburb": "Roseberry", "Postcode": 2018, "Agency": "City of Sydney", "ParkName": "Sweetacres Park", "OffLeashTime": "At all times", "ProhibitedAreas": "Playground and barbecue area", "OffLeashDescription": "Dog off-leash allowed at all times. Not allowed in playground and barbecue area." }, "geometry": { "type": "Point", "coordinates": [ 151.205075204098989, -33.9130341828875 ] } },
{ "type": "Feature", "properties": { "OBJECTID": 6, "Street": "Darling Island Road", "Suburb": "Pyrmont", "Postcode": 2009, "Agency": "Place Management NSW", "ParkName": "Metcalfe Park", "OffLeashTime": "At all times", "ProhibitedAreas": "", "OffLeashDescription": "Dog off-leash allowed at all times." }, "geometry": { "type": "Point", "coordinates": [ 151.196069240762, -33.865950761767301 ] } },
{ "type": "Feature", "properties": { "OBJECTID": 7, "Street": "54 Queen Street", "Suburb": "Beaconsfield", "Postcode": 2015, "Agency": "City of Sydney", "ParkName": "Beaconsfield Park", "OffLeashTime": "At all times", "ProhibitedAreas": "Courts, barbecue area, playground", "OffLeashDescription": "Dog off-leash allowed at all times." }, "geometry": { "type": "Point", "coordinates": [ 151.199765835101999, -33.911116789449302 ] } },
{ "type": "Feature", "properties": { "OBJECTID": 8, "Street": "Merriman Street", "Suburb": "Millers Point", "Postcode": 2000, "Agency": "City of Sydney", "ParkName": "Munn Reserve", "OffLeashTime": "At all times", "ProhibitedAreas": "", "OffLeashDescription": "Dog off-leash allowed at all times." }, "geometry": { "type": "Point", "coordinates": [ 151.202805267212, -33.858244913531699 ] } },
{ "type": "Feature", "properties": { "OBJECTID": 9, "Street": "Crystal Street", "Suburb": "Waterloo", "Postcode": 2017, "Agency": "City of Sydney", "ParkName": "Crown Park", "OffLeashTime": "At all times", "ProhibitedAreas": "", "OffLeashDescription": "Dog off-leash allowed at all times." }, "geometry": { "type": "Point", "coordinates": [ 151.213517260646995, -33.8987871592498 ] } },
{ "type": "Feature", "properties": { "OBJECTID": 10, "Street": "South Dowling Street", "Suburb": "Redfern", "Postcode": 2016, "Agency": "City of Sydney", "ParkName": "Edmund Resch Reserve", "OffLeashTime": "At all times", "ProhibitedAreas": "", "OffLeashDescription": "Dog off-leash allowed at all times." }, "geometry": { "type": "Point", "coordinates": [ 151.214738527956001, -33.895976613425802 ] } },
{ "type": "Feature", "properties": { "OBJECTID": 11, "Street": "Victoria Street", "Suburb": "Potts Point", "Postcode": 2011, "Agency": "City of Sydney", "ParkName": "Embarkation Park", "OffLeashTime": "from sunrise to sunset", "ProhibitedAreas": "", "OffLeashDescription": "Dog off-leash allowed from sunrise to sunset daily." }, "geometry": { "type": "Point", "coordinates": [ 151.22363315407901, -33.867604441446403 ] } },
{ "type": "Feature", "properties": { "OBJECTID": 12, "Street": "320-334 Jones Street to Bulwarra Road and Fig Lane", "Suburb": "Ultimo", "Postcode": 2007, "Agency": "City of Sydney", "ParkName": "Fig Lane Park", "OffLeashTime": "At all times", "ProhibitedAreas": "Playground", "OffLeashDescription": "Dog off-leash allowed at all times." }, "geometry": { "type": "Point", "coordinates": [ 151.195662716236001, -33.875682804877698 ] } },
{ "type": "Feature", "properties": { "OBJECTID": 13, "Street": "Elizabeth Bay Road", "Suburb": "Elizabeth Bay", "Postcode": 2011, "Agency": "City of Sydney", "ParkName": "Lawrence Hargrave Reserve", "OffLeashTime": "At all times", "ProhibitedAreas": "", "OffLeashDescription": "Dog off-leash allowed at all times." }, "geometry": { "type": "Point", "coordinates": [ 151.226445178878009, -33.873088804753202 ] } },
{ "type": "Feature", "properties": { "OBJECTID": 14, "Street": "303-307 Riley Street, corner Albion Street", "Suburb": "Surry Hills", "Postcode": 2010, "Agency": "City of Sydney", "ParkName": "Frog Hollow Reserve", "OffLeashTime": "At all times", "ProhibitedAreas": "", "OffLeashDescription": "Dog off-leash allowed at all times." }, "geometry": { "type": "Point", "coordinates": [ 151.212735121847004, -33.882982973557901 ] } },
{ "type": "Feature", "properties": { "OBJECTID": 15, "Street": "Brisbane Street", "Suburb": "Surry Hills", "Postcode": 2010, "Agency": "City of Sydney", "ParkName": "Harmony Park", "OffLeashTime": "At all times", "ProhibitedAreas": "", "OffLeashDescription": "This park is an off-leash area for dogs at all times." }, "geometry": { "type": "Point", "coordinates": [ 151.211877789938001, -33.879588254598403 ] } },
{ "type": "Feature", "properties": { "OBJECTID": 16, "Street": "Swanson Street, corner Fox Avenue", "Suburb": "Erskineville", "Postcode": 2043, "Agency": "City of Sydney", "ParkName": "Harry Noble Reserve", "OffLeashTime": "At all times", "ProhibitedAreas": "Playground", "OffLeashDescription": "This park is an off-leash area for dogs at all times. Not allowed in playground." }, "geometry": { "type": "Point", "coordinates": [ 151.189526796040013, -33.901005055862797 ] } },
{ "type": "Feature", "properties": { "OBJECTID": 17, "Street": "Wilson Street", "Suburb": "Newtown", "Postcode": 2042, "Agency": "City of Sydney", "ParkName": "Hollis Park", "OffLeashTime": "between 6pm and 8am", "ProhibitedAreas": "Playground", "OffLeashDescription": "Dog off-leash allowed between 6pm and 8am. Not allowed in playground." }, "geometry": { "type": "Point", "coordinates": [ 151.186108993857005, -33.894582717094103 ] } },
{ "type": "Feature", "properties": { "OBJECTID": 18, "Street": "Point Street", "Suburb": "Sydney", "Postcode": 2000, "Agency": "City of Sydney", "ParkName": "Giba Park", "OffLeashTime": "At all times", "ProhibitedAreas": "", "OffLeashDescription": "Dog off-leash allowed at all times." }, "geometry": { "type": "Point", "coordinates": [ 151.192943279720993, -33.864007130843603 ] } },
{ "type": "Feature", "properties": { "OBJECTID": 19, "Street": "Victoria Park Parade", "Suburb": "Zetland", "Postcode": 2017, "Agency": "City of Sydney", "ParkName": "Joynton Park", "OffLeashTime": "At all times", "ProhibitedAreas": "", "OffLeashDescription": "Dog off-leash allowed at all times." }, "geometry": { "type": "Point", "coordinates": [ 151.211194084834005, -33.9057538990956 ] } },
{ "type": "Feature", "properties": { "OBJECTID": 20, "Street": "Mary Ann Street", "Suburb": "Ultimo", "Postcode": 2007, "Agency": "City of Sydney", "ParkName": "Mary Ann Street Park", "OffLeashTime": "At all times", "ProhibitedAreas": "", "OffLeashDescription": "Dog off-leash allowed at all times." }, "geometry": { "type": "Point", "coordinates": [ 151.199005213682995, -33.8810810631728 ] } },
{ "type": "Feature", "properties": { "OBJECTID": 21, "Street": "Maddox Street", "Suburb": "Alexandria", "Postcode": 2015, "Agency": "City of Sydney", "ParkName": "Perry Park", "OffLeashTime": "At all times", "ProhibitedAreas": "", "OffLeashDescription": "Dog off-leash allowed at all times." }, "geometry": { "type": "Point", "coordinates": [ 151.196275280353007, -33.908137408135701 ] } },
{ "type": "Feature", "properties": { "OBJECTID": 22, "Street": "Waratah Street", "Suburb": "Rushcutters Bay", "Postcode": 2011, "Agency": "City of Sydney", "ParkName": "Rushcutters Bay Park", "OffLeashTime": "between 3:30pm and 10:30am", "ProhibitedAreas": "Reg Bartley Oval and Waratah Playground, tennis courts", "OffLeashDescription": "Dog off-leash allowed between 3:30pm and 10:30am seven days a week. Not allowed in Reg Bartley Oval Waratah Reserve Playground and Tennis Courts" }, "geometry": { "type": "Point", "coordinates": [ 151.229795730831, -33.873518971093603 ] } },
{ "type": "Feature", "properties": { "OBJECTID": 23, "Street": "Harcourt Parade and Gardeners Road", "Suburb": "Rosebery", "Postcode": 2018, "Agency": "City of Sydney", "ParkName": "Southern Cross Drive Reserve", "OffLeashTime": "At all times", "ProhibitedAreas": "", "OffLeashDescription": "Dog off-leash allowed at all times." }, "geometry": { "type": "Point", "coordinates": [ 151.21151287654601, -33.922329682918502 ] } },
{ "type": "Feature", "properties": { "OBJECTID": 24, "Street": "Harcourt Parade", "Suburb": "Rosebery", "Postcode": 2018, "Agency": "City of Sydney", "ParkName": "Tarakan Reserve", "OffLeashTime": "At all times", "ProhibitedAreas": "", "OffLeashDescription": "Dog off-leash allowed at all times." }, "geometry": { "type": "Point", "coordinates": [ 151.204672071956992, -33.920329311109697 ] } },
{ "type": "Feature", "properties": { "OBJECTID": 25, "Street": "Bowman Street", "Suburb": "Pyrmont", "Postcode": 2009, "Agency": "Place Management NSW", "ParkName": "Waterfront Park", "OffLeashTime": "At all times", "ProhibitedAreas": "Playgrounds and barbecue areas", "OffLeashDescription": "Dog off-leash allowed at all times. Not allowed in playground and barbecue areas." }, "geometry": { "type": "Point", "coordinates": [ 151.188395061658014, -33.867568324964601 ] } },
{ "type": "Feature", "properties": { "OBJECTID": 26, "Street": "Elizabeth Street, corner McEvoy Street", "Suburb": "Waterloo", "Postcode": 2017, "Agency": "City of Sydney", "ParkName": "Waterloo Park and Oval", "OffLeashTime": "At all times", "ProhibitedAreas": "Playground, oval, courts and skate park", "OffLeashDescription": "Dog off-leash allowed at all times. Not allowed in playground, oval, courts and skate park." }, "geometry": { "type": "Point", "coordinates": [ 151.205179784460995, -33.900194490289401 ] } },
{ "type": "Feature", "properties": { "OBJECTID": 27, "Street": "Buckland Street", "Suburb": "Alexandria", "Postcode": 2015, "Agency": "City of Sydney", "ParkName": "Alexandria Park", "OffLeashTime": "At all times", "ProhibitedAreas": "Oval, courts and playgrounds", "OffLeashDescription": "Areas outside the oval, courts and playgrounds are off-leash areas at all times." }, "geometry": { "type": "Point", "coordinates": [ 151.197885806750008, -33.900009211415103 ] } },
{ "type": "Feature", "properties": { "OBJECTID": 28, "Street": "4 College Street, corner William Street", "Suburb": "Sydney", "Postcode": 2000, "Agency": "City of Sydney", "ParkName": "Cook + Phillip Park", "OffLeashTime": "At all times", "ProhibitedAreas": "Playground and pool areas", "OffLeashDescription": "Grass areas are off-leash at all times. Not allowed in playground, pool." }, "geometry": { "type": "Point", "coordinates": [ 151.214118393670987, -33.872630404689197 ] } },
{ "type": "Feature", "properties": { "OBJECTID": 29, "Street": "Upper Fort Street", "Suburb": "Millers Point", "Postcode": 2000, "Agency": "City of Sydney", "ParkName": "Observatory Park", "OffLeashTime": "At all times", "ProhibitedAreas": "", "OffLeashDescription": "Dog off-leash allowed at all times." }, "geometry": { "type": "Point", "coordinates": [ 151.205299068717011, -33.859426834250002 ] } },
{ "type": "Feature", "properties": { "OBJECTID": 30, "Street": "Chalmers Street", "Suburb": "Surry Hills", "Postcode": 2010, "Agency": "City of Sydney", "ParkName": "Prince Alfred Park", "OffLeashTime": "At all times", "ProhibitedAreas": "Tennis and basketball courts, fitness stations, playgrounds, pool and barbecue areas", "OffLeashDescription": "Dogs are permitted off-leash at all times within the central grass and woodland area bounded by: North - Cleveland Street; South - Aquatic Centre; West - Main shared path; East - Park boundary." }, "geometry": { "type": "Point", "coordinates": [ 151.204956666870004, -33.888098989097998 ] } },
{ "type": "Feature", "properties": { "OBJECTID": 31, "Street": "Redfern Street", "Suburb": "Redfern", "Postcode": 2016, "Agency": "City of Sydney", "ParkName": "Redfern Park and Oval", "OffLeashTime": "between 4:30pm and 9:30am", "ProhibitedAreas": "Playgrounds, barbecue areas and oval. Dogs must remain on-leash on oval perimeter", "OffLeashDescription": "Dog off-leash allowed between 4:30pm and 9:30am seven days a week." }, "geometry": { "type": "Point", "coordinates": [ 151.206086619862987, -33.894432375986 ] } },
{ "type": "Feature", "properties": { "OBJECTID": 32, "Street": "Sydney Park Road", "Suburb": "Alexandria", "Postcode": 2015, "Agency": "City of Sydney", "ParkName": "Sydney Park", "OffLeashTime": "At all times", "ProhibitedAreas": "Wetlands, Alan Davidson Oval, Sydney Park Cycling Centre, playground and barbecue areas", "OffLeashDescription": "Dog off-leash allowed at all times. Extensive off-leash areas with a paddling pool for dogs. Prohibited areas: Wetlands, Alan Davidson Oval, Sydney Park Cycling Centre, playground, barbecue areas." }, "geometry": { "type": "Point", "coordinates": [ 151.184553017713995, -33.910436010561902 ] } },
{ "type": "Feature", "properties": { "OBJECTID": 33, "Street": "Parramatta Road", "Suburb": "Camperdown", "Postcode": 2050, "Agency": "City of Sydney", "ParkName": "Victoria Park", "OffLeashTime": "between 6pm and 8am", "ProhibitedAreas": "Pool, pond, barbecue areas and playgrounds", "OffLeashDescription": "Dog off-leash allowed between 6pm and 8am seven days a week. Not allowed in pool, pond, barbecue areas and playgrounds." }, "geometry": { "type": "Point", "coordinates": [ 151.192751031643013, -33.886144661438898 ] } },
{ "type": "Feature", "properties": { "OBJECTID": 34, "Street": "Wentworth Park Road", "Suburb": "Ultimo", "Postcode": 2007, "Agency": "City of Sydney", "ParkName": "Wentworth Park", "OffLeashTime": "At all times", "ProhibitedAreas": "Sports field during games, barbecue areas and playground", "OffLeashDescription": "Dog off-leash allowed at all times. Not allowed in sports field during games, barbecue areas and playground." }, "geometry": { "type": "Point", "coordinates": [ 151.19270702876301, -33.876611937006999 ] } },
{ "type": "Feature", "properties": { "OBJECTID": 35, "Street": "2a Chapman Road", "Suburb": "Annandale", "Postcode": 2038, "Agency": "City of Sydney", "ParkName": "Federal Park", "OffLeashTime": "Grass areas are off-leash all times, on the field when there are no sport activities.", "ProhibitedAreas": "Wetland, skatepark, playground and barbecue areas", "OffLeashDescription": "Grass areas are off-leash all times, on the field when there are no sport activities. Please keep dogs out of the payground." }, "geometry": { "type": "Point", "coordinates": [ 151.176445242222002, -33.8742893254799 ] } },
{ "type": "Feature", "properties": { "OBJECTID": 36, "Street": "Victoria Street, corner Burton Street and Darlinghurst Road", "Suburb": "Darlinghurst", "Postcode": 2010, "Agency": "City of Sydney", "ParkName": "Green Park", "OffLeashTime": "At all times", "ProhibitedAreas": "Monuments", "OffLeashDescription": "This park is an off-leash area for dogs at all times. Not allowed in monuments." }, "geometry": { "type": "Point", "coordinates": [ 151.220184149369004, -33.879595119069499 ] } },
{ "type": "Feature", "properties": { "OBJECTID": 37, "Street": "Elizabeth Bay Road", "Suburb": "Elizabeth Bay", "Postcode": 2011, "Agency": "City of Sydney", "ParkName": "Macleay Reserve", "OffLeashTime": "At all times", "ProhibitedAreas": "", "OffLeashDescription": "This reserve is an off-leash area for dogs at all times." }, "geometry": { "type": "Point", "coordinates": [ 151.230176430248008, -33.871636211406802 ] } },
{ "type": "Feature", "properties": { "OBJECTID": 38, "Street": "Park Street", "Suburb": "Erskineville", "Postcode": 2043, "Agency": "City of Sydney", "ParkName": "Solander Park", "OffLeashTime": "At all times", "ProhibitedAreas": "", "OffLeashDescription": "Dog off-leash allowed at all times." }, "geometry": { "type": "Point", "coordinates": [ 151.189703803291991, -33.8992155863113 ] } },
{ "type": "Feature", "properties": { "OBJECTID": 39, "Street": "Minogue Crescent", "Suburb": "Forest Lodge", "Postcode": 2037, "Agency": "City of Sydney", "ParkName": "JV McMahon Reserve", "OffLeashTime": "At all times", "ProhibitedAreas": "", "OffLeashDescription": "This reserve is an off-leash area for dogs at all times." }, "geometry": { "type": "Point", "coordinates": [ 151.176258254255004, -33.880781098556398 ] } },
{ "type": "Feature", "properties": { "OBJECTID": 40, "Street": "Minogue Crescent", "Suburb": "Forest Lodge", "Postcode": 2037, "Agency": "City of Sydney", "ParkName": "Canal Reserve", "OffLeashTime": "At all times", "ProhibitedAreas": "", "OffLeashDescription": "This reserve is an off-leash area for dogs at all times." }, "geometry": { "type": "Point", "coordinates": [ 151.176250240540014, -33.882258010343698 ] } },
{ "type": "Feature", "properties": { "OBJECTID": 41, "Street": "Chapman Road", "Suburb": "Glebe", "Postcode": 2037, "Agency": "City of Sydney", "ParkName": "Bicentennial Park", "OffLeashTime": "At all times", "ProhibitedAreas": "Playground", "OffLeashDescription": "The park’s off-leash section is west of the canal. Dogs not allowed in playground area." }, "geometry": { "type": "Point", "coordinates": [ 151.176811188075988, -33.873136675111802 ] } },
{ "type": "Feature", "properties": { "OBJECTID": 42, "Street": "Glebe Foreshore Walk, from Pope Paul Reserve to Ferry Road", "Suburb": "Glebe", "Postcode": 2037, "Agency": "City of Sydney", "ParkName": "Blackwattle Bay Park", "OffLeashTime": "At all times", "ProhibitedAreas": "Playground and barbecue areas", "OffLeashDescription": "Dog off-leash allowed at all times." }, "geometry": { "type": "Point", "coordinates": [ 151.184919470092012, -33.871534639862297 ] } },
{ "type": "Feature", "properties": { "OBJECTID": 43, "Street": "Harold Street", "Suburb": "Newtown", "Postcode": 2042, "Agency": "City of Sydney", "ParkName": "Isabella Hills Rest Area", "OffLeashTime": "At all times", "ProhibitedAreas": "", "OffLeashDescription": "This rest area is off-leash area for dogs at all times" }, "geometry": { "type": "Point", "coordinates": [ 151.181247640081011, -33.9011467477292 ] } },
{ "type": "Feature", "properties": { "OBJECTID": 44, "Street": "Gibbons Street", "Suburb": "Redfern", "Postcode": 2016, "Agency": "City of Sydney", "ParkName": "Gibbons Street Reserve", "OffLeashTime": "At all times", "ProhibitedAreas": "", "OffLeashDescription": "This reserve is an off-leash area for dogs at all times." }, "geometry": { "type": "Point", "coordinates": [ 151.198674675174999, -33.893405874838699 ] } },
{ "type": "Feature", "properties": { "OBJECTID": 45, "Street": "Hugo Street", "Suburb": "Redfern", "Postcode": 2016, "Agency": "City of Sydney", "ParkName": "Hugo Street Reserve", "OffLeashTime": "At all times", "ProhibitedAreas": "Basketball court. Dogs permitted off-leash in the southern (fenced) section only", "OffLeashDescription": "Dog off-leash at all times. Note: dogs permitted off-leash in the southern (fenced) section only." }, "geometry": { "type": "Point", "coordinates": [ 151.198354224328995, -33.889758451140402 ] } },
{ "type": "Feature", "properties": { "OBJECTID": 46, "Street": "5-15 Farrell Avenue", "Suburb": "Darlinghurst", "Postcode": 2010, "Agency": "City of Sydney", "ParkName": "Rosebank Park", "OffLeashTime": "At all times", "ProhibitedAreas": "", "OffLeashDescription": "Dog off-leash allowed at all times." }, "geometry": { "type": "Point", "coordinates": [ 151.220323217780987, -33.875927029435402 ] } },
{ "type": "Feature", "properties": { "OBJECTID": 47, "Street": "Archibald Avenue", "Suburb": "Waterloo", "Postcode": 2017, "Agency": "City of Sydney", "ParkName": "Rope Walk Park", "OffLeashTime": "At all times", "ProhibitedAreas": "Playground and water feature", "OffLeashDescription": "Dog off-leash allowed at all times." }, "geometry": { "type": "Point", "coordinates": [ 151.210591929781998, -33.902078935485299 ] } },
{ "type": "Feature", "properties": { "OBJECTID": 48, "Street": "Anzac Parade", "Suburb": "Moore Park", "Postcode": 2021, "Agency": "Centennial Parklands", "ParkName": "Moore Park", "OffLeashTime": "Please refer to map on Centennial Parklands site for precise details.", "ProhibitedAreas": "Playgrounds, memorials, wetlands, water features and sports grounds", "OffLeashDescription": "There are dog off-leash areas. Please refer to map on Centennial Parklands site for precise details. Prohibited areas: playgrounds, memorials, wetlands, water features and sports grounds." }, "geometry": { "type": "Point", "coordinates": [ 151.218801594595988, -33.890507462857101 ] } },
{ "type": "Feature", "properties": { "OBJECTID": 49, "Street": "Corner Albert Street and Erskineville Road", "Suburb": "Erskineville", "Postcode": 2043, "Agency": "City of Sydney", "ParkName": "Green Bans Park", "OffLeashTime": "At all times", "ProhibitedAreas": "Playground", "OffLeashDescription": "Dog off-leash allowed at all times. Not allowed in playground." }, "geometry": { "type": "Point", "coordinates": [ 151.182047628898005, -33.898086362469499 ] } },
{ "type": "Feature", "properties": { "OBJECTID": 50, "Street": "Ascot Avenue", "Suburb": "Zetland", "Postcode": 2017, "Agency": "City of Sydney", "ParkName": "Nuffield Park", "OffLeashTime": "At all times", "ProhibitedAreas": "Basketball courts", "OffLeashDescription": "At all times on the grass lawn area in the northern section of Nuffield Park. This is bounded by Hutchinson Walk, Ascot Avenue, George Julius Avenue and the park footpath, which runs from east to west through the park. The rest of the park is on-leash and dogs are prohibited from the basketball court." }, "geometry": { "type": "Point", "coordinates": [ 151.211047661560002, -33.907619866491203 ] } },
{ "type": "Feature", "properties": { "OBJECTID": 51, "Street": "Grand Drive", "Suburb": "Centennial Park", "Postcode": 2021, "Agency": "Centennial Parklands", "ParkName": "Centennial Parklands", "OffLeashTime": "Please refer to map on Centennial Parklands site for precise details.", "ProhibitedAreas": "Playgrounds, memorials, wetlands, water features and sports grounds", "OffLeashDescription": "There are dog off-leash areas. Please refer to map on Centennial Parklands site for precise details. Prohibited areas: playgrounds, memorials, wetlands, water features and sports grounds." }, "geometry": { "type": "Point", "coordinates": [ 151.235674218490004, -33.8961612210392 ] } }
]
}
